web-scraper-order,address_raw,lat,lon,bfs_number,bfs_name
1662023695-433,"Sunnenbergstrasse 15, 8633 Wolfhausen, ZH",47.255714416503906,8.804975509643555,112,Bubikon
1662023720-634,"Blumenbergstrasse 7, 8633 Wolfhausen, ZH",47.254878997802734,8.793745994567871,112,Bubikon
1662023745-834,"8608 Bubikon, ZH",47.27738571166992,8.80030632019043,112,Bubikon
1662023701-503,"8608 Bubikon, ZH",47.27738571166992,8.80030632019043,112,Bubikon
1662023745-820,"Lavaterstr. 63, 8002 Zürich, ZH",47.36137771606445,8.53333854675293,261,Zürich
1662023739-771,"Parkring 59, 8002 Zürich, ZH",47.36689758300781,8.528817176818848,261,Zürich
1662023720-640,"Flobotstrasse 2, 8044 Zürich, ZH",47.37957763671875,8.570284843444824,261,Zürich
1662023686-384,"Hinterbergstrasse 57, 8044 Zürich, ZH",47.382015228271484,8.556857109069824,261,Zürich
1662023789-1164,"Nansenstrasse 7, 8050 Zürich, ZH",47.410762786865234,8.545214653015137,261,Zürich
1662023764-980,"Wehntalerstrasse 223, 8057 Zürich, ZH",47.40802001953125,8.529781341552734,261,Zürich
1662023767-1007,"Baumackerstrasse 47, 8050 Zürich, ZH",47.40944290161133,8.542278289794922,261,Zürich
1662023704-520,"Zwischenbächen 139, 8048 Zürich, ZH",47.380489349365234,8.4798002243042,261,Zürich
1662023698-468,"Hallwylstrasse 84, 8004 Zürich, ZH",47.369815826416016,8.526166915893555,261,Zürich
1662023789-1172,"Pfingstweidstrasse 104 E, 8005 Zürich, ZH",47.39086151123047,8.509053230285645,261,Zürich
1662023752-867,"Altwiesenstrasse 346, 8051 Zürich, ZH",47.399959564208984,8.590506553649902,261,Zürich
1662023761-945,"Badenerstrasse 250, 8004 Zürich, ZH",47.3759880065918,8.516037940979004,261,Zürich
1662023774-1056,"Schöntalstrasse 27, 8004 Zürich, ZH",47.37080764770508,8.526028633117676,261,Zürich
1662023761-941,"Am Wasser 161, 8049 Zürich, ZH",47.399436950683594,8.495816230773926,261,Zürich
1662023786-1149,"Freudenbergstrasse 94, 8044 Zürich, ZH",47.384132385253906,8.55653190612793,261,Zürich
1662023755-909,"Lavaterstr. 63, 8002 Zürich, ZH",47.36137771606445,8.53333854675293,261,Zürich
1662023714-590,"Meientalstrasse 65, 8048 Zürich, ZH",47.385841369628906,8.478418350219727,261,Zürich
1662023801-1270,"Affolternstrasse 154, 8050 Zürich, ZH",47.4113655090332,8.532044410705566,261,Zürich
1662023786-1131,"Seestrasse 361, 8038 Zürich, ZH",47.345306396484375,8.533795356750488,261,Zürich
1662023730-716,"Hohlstr. 509, 8048 Zürich, ZH",47.388973236083984,8.493876457214355,261,Zürich
1662023798-1239,"Feldblumenstrasse 10, 8048 Zürich, ZH",47.388099670410156,8.482545852661133,261,Zürich
1662023695-453,"Letzigraben 171, 8047 Zürich, ZH",47.37362289428711,8.495223999023438,261,Zürich
1662023695-436,"Fritz Fleiner-Weg 11, 8044 Zürich, ZH",47.38129806518555,8.56221866607666,261,Zürich
1662023786-1150,"Uhlandstrasse 6, 8037 Zürich, ZH",47.394466400146484,8.5289306640625,261,Zürich
1662023714-581,"Frohburgstrasse 303, 8057 Zürich, ZH",47.40309143066406,8.557792663574219,261,Zürich
1662023807-1317,"Hätzlergasse 28, 8048 Zürich, ZH",47.39047622680664,8.468478202819824,261,Zürich
1662023701-483,"8048 Zürich, ZH",47.38191604614258,8.482671737670898,261,Zürich
1662023810-1322,"8001 Zürich, ZH",47.368934631347656,8.54139232635498,261,Zürich
1662023795-1221,"Carmenstrasse 16, 8032 Zürich, ZH",47.369754791259766,8.561036109924316,261,Zürich
1662023801-1263,"Forsterstrasse, 8044 Zürich, ZH",47.38007736206055,8.564464569091797,261,Zürich
1662023727-676,"Im Trichtisal 7, 8053 Zürich, ZH",47.35511779785156,8.603344917297363,261,Zürich
1662023780-1096,"Staffelstrasse 13, 8045 Zürich, ZH",47.36064529418945,8.52066707611084,261,Zürich
1662023733-742,"Giessereistrasse 12, 8005 Zürich, ZH",47.390220642089844,8.518072128295898,261,Zürich
1662023707-529,"Rebgasse 8, 8004 Zürich, ZH",47.374168395996094,8.530760765075684,261,Zürich
1662023733-734,"Fellenbergstrasse 319, 8047 Zürich, ZH",47.3751335144043,8.487833023071289,261,Zürich
1662023723-662,"Bucheggstrasse 157, 8057 Zürich, ZH",47.39902114868164,8.540755271911621,261,Zürich
1662023795-1220,"Grimselstrasse 19, 8048 Zürich, ZH",47.385684967041016,8.489228248596191,261,Zürich
1662023813-1364,"Viktoriastrasse 29, 8057 Zürich, ZH",47.40406799316406,8.55045223236084,261,Zürich
1662023736-764,"Gladbachstr. 120, 8044 Zürich, ZH",47.37733840942383,8.558547019958496,261,Zürich
1662023793-1195,"Schaffhauserstrasse 456, 8052 Zürich, ZH",47.418052673339844,8.546833038330078,261,Zürich
1662023752-879,"Badenerstrasse  250, 8004 Zürich, ZH",47.3759880065918,8.516037940979004,261,Zürich
1662023777-1058,"Hardturmstr. 5, 8005 Zürich, ZH",47.39119338989258,8.519919395446777,261,Zürich
1662023786-1137,"Glatttalstrasse 106, 8052 Zürich, ZH",47.430091857910156,8.54483699798584,261,Zürich
1662023739-787,"Langgrütstrasse 104, 8047 Zürich, ZH",47.373294830322266,8.495368003845215,261,Zürich
1662023723-666,"8001 Zürich, ZH",47.368934631347656,8.54139232635498,261,Zürich
1662023807-1311,"Schaffhauserstrasse 473, 8052 Zürich, ZH",47.420040130615234,8.548195838928223,261,Zürich
1662023761-944,"Am Wasser 161, 8049 Zürich, ZH",47.399436950683594,8.495816230773926,261,Zürich
1662023804-1296,"Nordstrasse 135, 8037 Zürich, ZH",47.39029312133789,8.533413887023926,261,Zürich
1662023692-412,"Im Isengrind 11, 8046 Zürich, ZH",47.42313766479492,8.511916160583496,261,Zürich
1662023701-494,"Herrligweg 9, 8048 Zürich, ZH",47.389892578125,8.484477996826172,261,Zürich
1662023749-856,"Flobotstrasse 2, 8044 Zürich, ZH",47.37957763671875,8.570284843444824,261,Zürich
1662023795-1219,"Maneggplatz 16, 8041 Zürich, ZH",47.339881896972656,8.520716667175293,261,Zürich
1662023736-751,"Hinterbergstrasse 106, 8044 Zürich, ZH",47.3851318359375,8.559892654418945,261,Zürich
1662023771-1013,"Mühlebachstr. 28, 8008 Zürich, ZH",47.3648567199707,8.550126075744629,261,Zürich
1662023786-1152,"Widmerstrasse 19, 8038 Zürich, ZH",47.337650299072266,8.53615665435791,261,Zürich
1662023789-1174,"Albisstrasse 118, 8038 Zürich, ZH",47.33719253540039,8.52980899810791,261,Zürich
1662023752-880,"Badenerstrasse 250, 8004 Zürich, ZH",47.3759880065918,8.516037940979004,261,Zürich
1662023789-1165,"Im Altried 1f, 8051 Zürich, ZH",47.40413284301758,8.59100341796875,261,Zürich
1662023749-847,"Jenatschstrasse 5, 8002 Zürich, ZH",47.364044189453125,8.53388786315918,261,Zürich
1662023771-1009,"Dörflistrasse  112, 8050 Zürich, ZH",47.410823822021484,8.547832489013672,261,Zürich
1662023755-912,"Austrasse 27, 8045 Zürich, ZH",47.36555099487305,8.519927024841309,261,Zürich
1662023742-812,"Pfingstweidstrasse 98, 8005 Zürich, ZH",47.39064025878906,8.51033878326416,261,Zürich
1662023761-950,"Albisstrasse 170, 8038 Zürich, ZH",47.333030700683594,8.529637336730957,261,Zürich
1662023774-1055,"Uhlandstrasse 6, 8037 Zürich, ZH",47.394466400146484,8.5289306640625,261,Zürich
1662023742-799,"8048 Zürich, ZH",47.38191604614258,8.482671737670898,261,Zürich
1662023755-890,"Seefeldstr. 168, 8008 Zürich, ZH",47.35554504394531,8.556349754333496,261,Zürich
1662023783-1110,"Grosswiesenstrasse 22, 8051 Zürich, ZH",47.403358459472656,8.583616256713867,261,Zürich
1662023742-801,"Albisriederplatz 1, 8003 Zürich, ZH",47.37791061401367,8.510482788085938,261,Zürich
1662023723-654,"8046 Zürich, ZH",47.42034149169922,8.502178192138672,261,Zürich
1662023777-1067,"Wehntalerstrasse 286, 8046 Zürich, ZH",47.41147232055664,8.525978088378906,261,Zürich
1662023813-1357,"Herrligweg 9, 8048 Zürich, ZH",47.389892578125,8.484477996826172,261,Zürich
1662023714-584,"8001 Zürich, ZH",47.368934631347656,8.54139232635498,261,Zürich
1662023771-1030,"Parkring 57, 8002 Zürich, ZH",47.36673355102539,8.528434753417969,261,Zürich
1662023755-901,"Seestrasse 412, 8038 Zürich, ZH",47.34281921386719,8.535778999328613,261,Zürich
1662023767-1008,"Langwiesstrasse, 8050 Zürich, ZH",47.41059875488281,8.53764533996582,261,Zürich
1662023714-594,"8053 Zürich, ZH",47.35861587524414,8.578998565673828,261,Zürich
1662023807-1315,"Witikonerstrasse 297, 8053 Zürich, ZH",47.35947799682617,8.585931777954102,261,Zürich
1662023730-710,"Soodstrasse 88, 8041 Zürich, ZH",47.325828552246094,8.518373489379883,261,Zürich
1662023723-658,"Letzigraben 120, 8047 Zürich, ZH",47.37661361694336,8.497147560119629,261,Zürich
1662023717-624,"Seestrasse 412, 8038 Zürich, ZH",47.34281921386719,8.535778999328613,261,Zürich
1662023739-791,"Badenerstrasse  250, 8004 Zürich, ZH",47.3759880065918,8.516037940979004,261,Zürich
1662023795-1216,"Ziegelstrasse 20, 8038 Zürich, ZH",47.340782165527344,8.52829647064209,261,Zürich
1662023736-747,"8052 Zürich, ZH",47.41648864746094,8.548842430114746,261,Zürich
1662023777-1077,"Soodstrasse 90, 8041 Zürich, ZH",47.32560729980469,8.51819896697998,261,Zürich
1662023686-362,"Hofwiesenstrasse 135, 8057 Zürich, ZH",47.39908981323242,8.532793998718262,261,Zürich
1662023804-1295,"Wiesliacher 16, 8053 Zürich, ZH",47.354740142822266,8.599199295043945,261,Zürich
1662023711-558,"Staffelstrasse 13, 8045 Zürich, ZH",47.36064529418945,8.52066707611084,261,Zürich
1662023780-1099,"Grosswiesenstrasse 2, 8051 Zürich, ZH",47.4034423828125,8.582525253295898,261,Zürich
1662023695-455,"Kasernenstrasse 11, 8004 Zürich, ZH",47.37397003173828,8.531791687011719,261,Zürich
1662023783-1128,"Zwinglistrasse 35, 8004 Zürich, ZH",47.378623962402344,8.527950286865234,261,Zürich
1662023707-546,"Rigistr. 52, 8006 Zürich, ZH",47.384803771972656,8.550923347473145,261,Zürich
1662023755-889,"Schwandenholzstrasse 232, 8046 Zürich, ZH",47.42425537109375,8.521562576293945,261,Zürich
1662023758-915,"Walchestr. 25, 8006 Zürich, ZH",47.381141662597656,8.541439056396484,261,Zürich
1662023745-832,"Calandastrasse 3, 8048 Zürich, ZH",47.38764953613281,8.489997863769531,261,Zürich
1662023701-488,"8006 Zürich, ZH",47.39287567138672,8.551520347595215,261,Zürich
1662023689-395,"Billeterstrasse 15, 8044 Zürich, ZH",47.37915802001953,8.566191673278809,261,Zürich
1662023801-1262,"Giacomettistrasse 17, 8049 Zürich, ZH",47.40287399291992,8.505340576171875,261,Zürich
1662023752-871,"Kreuzstrasse 64, 8008 Zürich, ZH",47.36457824707031,8.552704811096191,261,Zürich
1662023758-933,"Eggbühlstrasse 1, 8050 Zürich, ZH",47.416175842285156,8.544777870178223,261,Zürich
1662023695-445,"Eibenstrasse 6, 8045 Zürich, ZH",47.363685607910156,8.521366119384766,261,Zürich
1662023755-905,"Butzenstrasse 2, 8038 Zürich, ZH",47.34154510498047,8.530033111572266,261,Zürich
1662023795-1223,"Eggbühlstrasse 24, 8050 Zürich, ZH",47.41639709472656,8.543224334716797,261,Zürich
1662023701-482,"Limmatquai 70, 8001 Zürich, ZH",47.372718811035156,8.542970657348633,261,Zürich
1662023733-740,"Affolternstrasse 103, 8050 Zürich, ZH",47.41026306152344,8.536553382873535,261,Zürich
1662023793-1182,"Zürcherstrasse 5, 8102 Oberengstringen, ZH",47.405029296875,8.47723388671875,261,Zürich
1662023767-994,"Forchstr. 26, 8008 Zürich, ZH",47.363990783691406,8.556114196777344,261,Zürich
1662023739-789,"Langgrütstrasse 96, 8047 Zürich, ZH",47.37327575683594,8.495824813842773,261,Zürich
1662023774-1053,"Scheffelstrasse 11, 8037 Zürich, ZH",47.39439010620117,8.529122352600098,261,Zürich
1662023695-456,"8005 Zürich, ZH",47.38420486450195,8.531729698181152,261,Zürich
1662023789-1167,"Magdalenenstrasse 9, 8050 Zürich, ZH",47.40725326538086,8.551426887512207,261,Zürich
1662023767-988,"Kreuzstrasse 55, 8008 Zürich, ZH",47.364540100097656,8.552120208740234,261,Zürich
1662023742-803,"Emil Oprecht-Str. 1, 8050 Zürich, ZH",47.41197967529297,8.541033744812012,261,Zürich
1662023704-517,"Schaffhauserstrasse 475, 8052 Zürich, ZH",47.42020034790039,8.54835319519043,261,Zürich
1662023789-1162,"Seefeldstr. 117, 8008 Zürich, ZH",47.35837936401367,8.554369926452637,261,Zürich
1662023755-893,"Röntgenstrasse 48, 8005 Zürich, ZH",47.38470458984375,8.527143478393555,261,Zürich
1662023789-1170,"Dennlerstr. 24, 8047 Zürich, ZH",47.381561279296875,8.497806549072266,261,Zürich
1662023704-515,"Jungholzstrasse 20, 8050 Zürich, ZH",47.41342544555664,8.54434871673584,261,Zürich
1662023698-466,"Waffenplatzstrasse 80, 8002 Zürich, ZH",47.355648040771484,8.52674674987793,261,Zürich
1662023720-643,"Badenerstrasse 595, 8048 Zürich, ZH",47.3852653503418,8.49389934539795,261,Zürich
1662023764-983,"Am Wasser 161, 8049 Zürich, ZH",47.399436950683594,8.495816230773926,261,Zürich
1662023745-821,"Ackerstrasse 55, 8005 Zürich, ZH",47.383338928222656,8.532877922058105,261,Zürich
1662023795-1207,"Imbisbühlstrasse 108, 8049 Zürich, ZH",47.40587615966797,8.487546920776367,261,Zürich
1662023692-409,"8055 Zürich, ZH",47.36378860473633,8.509098052978516,261,Zürich
1662023745-836,"Neudorfstr. 17, 8050 Zürich, ZH",47.41176223754883,8.547621726989746,261,Zürich
1662023789-1173,"Gerhardstrasse 8, 8003 Zürich, ZH",47.37050247192383,8.523018836975098,261,Zürich
1662023783-1108,"Karstlernstrasse 14, 8048 Zürich, ZH",47.3899040222168,8.47831916809082,261,Zürich
1662023767-995,"Kreuzstrasse 55, 8008 Zürich, ZH",47.364540100097656,8.552120208740234,261,Zürich
1662023698-458,"Scheffelstrasse 11, 8037 Zürich, ZH",47.39439010620117,8.529122352600098,261,Zürich
1662023742-804,"Emil Oprecht-Str. 1, 8050 Zürich, ZH",47.41197967529297,8.541033744812012,261,Zürich
1662023701-493,"Herrligweg 9, 8048 Zürich, ZH",47.389892578125,8.484477996826172,261,Zürich
1662023745-837,"Elisabethenstrasse 28, 8004 Zürich, ZH",47.37369155883789,8.521880149841309,261,Zürich
1662023752-870,"Spindelstrasse 12, 8041 Zürich, ZH",47.339759826660156,8.517643928527832,261,Zürich
1662023730-709,"Lehfrauenweg 10, 8053 Zürich, ZH",47.359649658203125,8.589973449707031,261,Zürich
1662023714-577,"Bachtobelstrasse 23, 8045 Zürich, ZH",47.36090850830078,8.516180038452148,261,Zürich
1662023786-1148,"Uhlandstrasse 6, 8037 Zürich, ZH",47.394466400146484,8.5289306640625,261,Zürich
1662023793-1189,"Herrligstrasse 36, 8048 Zürich, ZH",47.38893127441406,8.48462200164795,261,Zürich
1662023786-1142,"Hubenstr. 14, 8057 Zürich, ZH",47.4035758972168,8.558526039123535,261,Zürich
1662023795-1209,"Gustav-Gull-Platz 11, 8004 Zürich, ZH",47.379425048828125,8.5318021774292,261,Zürich
1662023813-1363,"Nelkenstrasse 20, 8006 Zürich, ZH",47.38184356689453,8.546545028686523,261,Zürich
1662023780-1104,"Gustav-Gull-Platz 11, 8004 Zürich, ZH",47.379425048828125,8.5318021774292,261,Zürich
1662023723-657,"Dörflistrasse 112, 8050 Zürich, ZH",47.410823822021484,8.547832489013672,261,Zürich
1662023736-753,"Schwandenholzstrasse 260, 8046 Zürich, ZH",47.42427444458008,8.519989967346191,261,Zürich
1662023739-788,"Letzigraben 165, 8047 Zürich, ZH",47.374027252197266,8.495600700378418,261,Zürich
1662023795-1218,"Maneggplatz 40, 8041 Zürich, ZH",47.33966827392578,8.520100593566895,261,Zürich
1662023745-833,"Jonas-Furrer-Str. 21, 8046 Zürich, ZH",47.42037582397461,8.508238792419434,261,Zürich
1662023714-591,"Schulhausstrasse 47, 8002 Zürich, ZH",47.36001968383789,8.528043746948242,261,Zürich
1662023793-1187,"Hagenholzstrasse 66, 8050 Zürich, ZH",47.4133186340332,8.556182861328125,261,Zürich
1662023767-999,"Holderbachweg 8, 8046 Zürich, ZH",47.41841506958008,8.504903793334961,261,Zürich
1662023801-1268,"Jungstrasse 18, 8050 Zürich, ZH",47.41508865356445,8.543237686157227,261,Zürich
1662023739-790,"Badenerstrasse  250, 8004 Zürich, ZH",47.3759880065918,8.516037940979004,261,Zürich
1662023749-852,"Altstetterstrasse 178, 8048 Zürich, ZH",47.385684967041016,8.485180854797363,261,Zürich
1662023786-1147,"Etzelstrasse 6, 8038 Zürich, ZH",47.34442138671875,8.530671119689941,261,Zürich
1662023786-1145,"Heliosstrasse 12, 8032 Zürich, ZH",47.363853454589844,8.559439659118652,261,Zürich
1662023711-564,"Baurstrasse 29, 8008 Zürich, ZH",47.35592269897461,8.554497718811035,261,Zürich
1662023798-1238,"Feldblumenstrasse 10, 8048 Zürich, ZH",47.388099670410156,8.482545852661133,261,Zürich
1662023723-667,"8001 Zürich, ZH",47.368934631347656,8.54139232635498,261,Zürich
1662023810-1333,"Maneggplatz 14, 8041 Zürich, ZH",47.340206146240234,8.520726203918457,261,Zürich
1662023692-431,"8057 Zürich, ZH",47.393585205078125,8.539556503295898,261,Zürich
1662023810-1338,"Feldstrasse 40, 8004 Zürich, ZH",47.3758544921875,8.521323204040527,261,Zürich
1662023698-472,"Badenerstrasse 595, 8048 Zürich, ZH",47.3852653503418,8.49389934539795,261,Zürich
1662023801-1260,"am Oeschbrig 5, 8053 Zürich, ZH",47.35725784301758,8.599966049194336,261,Zürich
1662023739-786,"Letzigraben 165, 8047 Zürich, ZH",47.374027252197266,8.495600700378418,261,Zürich
1662023761-943,"Am Wasser 161, 8049 Zürich, ZH",47.399436950683594,8.495816230773926,261,Zürich
1662023739-785,"Letzigraben 165, 8047 Zürich, ZH",47.374027252197266,8.495600700378418,261,Zürich
1662023793-1194,"Mühlebachstrasse 76, 8008 Zürich, ZH",47.36259078979492,8.553037643432617,261,Zürich
1662023761-949,"Soodstrasse 90, 8041 Zürich, ZH",47.32560729980469,8.51819896697998,261,Zürich
1662023795-1206,"Bühlstrasse 45C, 8055 Zürich, ZH",47.36454772949219,8.51507568359375,261,Zürich
1662023714-585,"Riedenhaldenstrasse 254, 8046 Zürich, ZH",47.419857025146484,8.510608673095703,261,Zürich
1662023755-907,"Oerlikonerstrasse 87, 8057 Zürich, ZH",47.4050407409668,8.546213150024414,261,Zürich
1662023714-579,"Bachmattstr. 59, 8048 Zürich, ZH",47.389041900634766,8.483692169189453,261,Zürich
1662023689-385,"8053 Zürich, ZH",47.35861587524414,8.578998565673828,261,Zürich
1662023736-756,"Birmensdorferstrasse 598, 8055 Zürich, ZH",47.36793518066406,8.488553047180176,261,Zürich
1662023752-869,"Schrennengasse 14, 8003 Zürich, ZH",47.36940383911133,8.516093254089355,261,Zürich
1662023704-528,"Redingstrasse 3, 8038 Zürich, ZH",47.348960876464844,8.526168823242188,261,Zürich
1662023711-559,"Birmensdorferstrasse 596, 8055 Zürich, ZH",47.3679084777832,8.488808631896973,261,Zürich
1662023749-843,"Ottikerstrasse 11, 8006 Zürich, ZH",47.385704040527344,8.542648315429688,261,Zürich
1662023780-1102,"Zeltweg 68, 8032 Zürich, ZH",47.36709213256836,8.552876472473145,261,Zürich
1662023804-1280,"Hallenstrasse 8, 8008 Zürich, ZH",47.36317825317383,8.54866886138916,261,Zürich
1662023701-489,"8057 Zürich, ZH",47.393585205078125,8.539556503295898,261,Zürich
1662023801-1267,"Färberstrasse 27, 8008 Zürich, ZH",47.36214065551758,8.549431800842285,261,Zürich
1662023780-1094,"Stampfenbachplatz 4, 8006 Zürich, ZH",47.380401611328125,8.542487144470215,261,Zürich
1662023764-975,"Wehrenbachhalde 39, 8053 Zürich, ZH",47.35622787475586,8.580233573913574,261,Zürich
1662023761-948,"Seefeldstr. 168, 8008 Zürich, ZH",47.35554504394531,8.556349754333496,261,Zürich
1662023749-859,"Käferholzstrasse 60, 8057 Zürich, ZH",47.40255355834961,8.532090187072754,261,Zürich
1662023686-383,"Hinterbergstrasse 57, 8044 Zürich, ZH",47.382015228271484,8.556857109069824,261,Zürich
1662023804-1287,"Höschgasse 46, 8008 Zürich, ZH",47.357513427734375,8.55413818359375,261,Zürich
1662023733-739,"Imbisbühlstrasse 110, 8049 Zürich, ZH",47.405967712402344,8.487181663513184,261,Zürich
1662023807-1306,"Feldstrasse 39, 8004 Zürich, ZH",47.3762092590332,8.521111488342285,261,Zürich
1662023786-1146,"Beckhammer 19, 8057 Zürich, ZH",47.401058197021484,8.541216850280762,261,Zürich
1662023761-939,"Grosswiesenstrasse 20, 8051 Zürich, ZH",47.40337371826172,8.583436012268066,261,Zürich
1662023752-882,"Soodstrasse 90, 8041 Zürich, ZH",47.32560729980469,8.51819896697998,261,Zürich
1662023711-555,"Balberstrasse 68, 8038 Zürich, ZH",47.33802795410156,8.526716232299805,261,Zürich
1662023780-1103,"Am Wasser 161, 8049 Zürich, ZH",47.399436950683594,8.495816230773926,261,Zürich
1662023761-946,"Am Wasser 161, 8049 Zürich, ZH",47.399436950683594,8.495816230773926,261,Zürich
1662023798-1237,"Im Holzerhurd 60, 8046 Zürich, ZH",47.42334747314453,8.496809005737305,261,Zürich
1662023695-454,"Rosmarinweg 3, 8057 Zürich, ZH",47.40321350097656,8.550189971923828,261,Zürich
1662023774-1047,"Hohenklingenstrasse 45, 8049 Zürich, ZH",47.40235137939453,8.490530014038086,261,Zürich
1662023755-898,"Höschgasse 76, 8008 Zürich, ZH",47.35784912109375,8.556351661682129,261,Zürich
1662023758-919,"Baslerstrasse 31, 8048 Zürich, ZH",47.384037017822266,8.5020751953125,261,Zürich
1662023793-1192,"Neunbrunnenstr. 153, 8050 Zürich, ZH",47.41574478149414,8.532227516174316,261,Zürich
1662023727-688,"Sihlhallenstrasse 28, 8004 Zürich, ZH",47.380123138427734,8.526421546936035,261,Zürich
1662023761-942,"Badenerstrasse 250, 8004 Zürich, ZH",47.3759880065918,8.516037940979004,261,Zürich
1662023793-1184,"Dörflistrasse 112, 8050 Zürich, ZH",47.410823822021484,8.547832489013672,261,Zürich
1662023698-469,"Klosbachstrasse 44, 8032 Zürich, ZH",47.36623764038086,8.557329177856445,261,Zürich
1662023730-700,"Birchstrasse 98, 8050 Zürich, ZH",47.407814025878906,8.536985397338867,261,Zürich
1662023692-415,"Badenerstrasse 701, 8048 Zürich, ZH",47.387939453125,8.483872413635254,261,Zürich
1662023714-580,"Wehntalerstrasse 402, 8046 Zürich, ZH",47.41493225097656,8.516685485839844,261,Zürich
1662023764-973,"Forchstrasse 261, 8032 Zürich, ZH",47.364723205566406,8.55510139465332,261,Zürich
1662023745-835,"Im Heuried 52, 8055 Zürich, ZH",47.36848831176758,8.508621215820312,261,Zürich
1662023783-1112,"Bachmattstrasse 66, 8048 Zürich, ZH",47.389068603515625,8.483251571655273,261,Zürich
1662023742-807,"Langfurrenstrasse 5c, 8623 Wetzikon ZH, ZH",47.32863235473633,8.810400009155273,121,Wetzikon (ZH)
1662023755-900,"8620 Wetzikon ZH, ZH",47.31372833251953,8.828516006469727,121,Wetzikon (ZH)
1662023793-1186,"Rosenstrasse 1, 8623 Wetzikon ZH, ZH",47.33300018310547,8.808183670043945,121,Wetzikon (ZH)
1662023739-781,"Langfurrenstrasse 5c, 8623 Wetzikon ZH, ZH",47.32863235473633,8.810400009155273,121,Wetzikon (ZH)
1662023767-1004,"Spitalstr. 157, 8620 Wetzikon ZH, ZH",47.32657241821289,8.808747291564941,121,Wetzikon (ZH)
1662023695-437,"Pappelnstr. 14, 8620 Wetzikon ZH, ZH",47.328514099121094,8.80092716217041,121,Wetzikon (ZH)
1662023752-865,"Langfurrenstrasse 5a, 8623 Wetzikon ZH, ZH",47.3288459777832,8.80976390838623,121,Wetzikon (ZH)
1662023698-478,"Kirchgasse 4, 8620 Wetzikon ZH, ZH",47.32634353637695,8.797727584838867,121,Wetzikon (ZH)
1662023739-773,"Langfurrenstrasse 5b, 8623 Wetzikon ZH, ZH",47.3287239074707,8.810142517089844,121,Wetzikon (ZH)
1662023689-388,"8620 Wetzikon ZH, ZH",47.31372833251953,8.828516006469727,121,Wetzikon (ZH)
1662023807-1305,"Weststrasse 66, 8620 Wetzikon ZH, ZH",47.329673767089844,8.796716690063477,121,Wetzikon (ZH)
1662023767-1005,"Bahnhofstrasse 117, 8620 Wetzikon ZH, ZH",47.32510757446289,8.798135757446289,121,Wetzikon (ZH)
1662023701-485,"Schneggenstr. 24, 8620 Wetzikon ZH, ZH",47.320735931396484,8.8002290725708,121,Wetzikon (ZH)
1662023764-970,"Guyer-Zeller-Strasse 1, 8620 Wetzikon ZH, ZH",47.314697265625,8.793615341186523,121,Wetzikon (ZH)
1662023761-959,"Weststrasse 68, 8620 Wetzikon ZH, ZH",47.3298454284668,8.796719551086426,121,Wetzikon (ZH)
1662023801-1264,"Messikommerstrasse 37, 8620 Wetzikon ZH, ZH",47.32208251953125,8.792054176330566,121,Wetzikon (ZH)
1662023742-805,"Zelglistrasse 11A, 8620 Wetzikon ZH, ZH",47.330013275146484,8.786087989807129,121,Wetzikon (ZH)
1662023704-523,"Bahnhofstrasse 148, 8620 Wetzikon ZH, ZH",47.32648849487305,8.798989295959473,121,Wetzikon (ZH)
1662023742-816,"Usterstrasse 44, 8620 Wetzikon ZH, ZH",47.32724380493164,8.794759750366211,121,Wetzikon (ZH)
1662023749-858,"Blaketen 6, 8620 Wetzikon ZH, ZH",47.3231086730957,8.799917221069336,121,Wetzikon (ZH)
1662023804-1290,"Sandbuckweg 5A, 8157 Dielsdorf, ZH",47.47749328613281,8.456284523010254,86,Dielsdorf
1662023701-499,"Heugasse 2, 8157 Dielsdorf, ZH",47.48674392700195,8.452263832092285,86,Dielsdorf
1662023695-438,"Altmoosstrasse 17, 8157 Dielsdorf, ZH",47.476966857910156,8.454099655151367,86,Dielsdorf
1662023786-1133,"Krummibuckweg 9, 8157 Dielsdorf, ZH",47.48097229003906,8.460487365722656,86,Dielsdorf
1662023745-839,"Mühlestrasse 1, 8157 Dielsdorf, ZH",47.48301696777344,8.453057289123535,86,Dielsdorf
1662023692-410,"8157 Dielsdorf, ZH",47.483341217041016,8.461685180664062,86,Dielsdorf
1662023758-918,"Krummibuckweg 6, 8157 Dielsdorf, ZH",47.48119354248047,8.459864616394043,86,Dielsdorf
1662023704-512,"Regensbergstrasse 8, 8157 Dielsdorf, ZH",47.48210144042969,8.452489852905273,86,Dielsdorf
1662023707-544,"Ifangweg 1, 8610 Uster, ZH",47.35888671875,8.71379566192627,198,Uster
1662023786-1135,"Unterbühlenstr. 3B, 8610 Uster, ZH",47.344234466552734,8.707965850830078,198,Uster
1662023764-971,"Ifangweg 8, 8610 Uster, ZH",47.35796356201172,8.714289665222168,198,Uster
1662023736-766,"Steigstr. 3, 8610 Uster, ZH",47.34431076049805,8.730061531066895,198,Uster
1662023793-1198,"Poststr. 3, 8610 Uster, ZH",47.34947967529297,8.718282699584961,198,Uster
1662023786-1129,"Meierackerstr. 4, 8610 Uster, ZH",47.360042572021484,8.716106414794922,198,Uster
1662023745-828,"Gerichtsstrasse 5, 8610 Uster, ZH",47.350032806396484,8.716350555419922,198,Uster
1662023793-1178,"Florastr. 14, 8610 Uster, ZH",47.34764862060547,8.71961498260498,198,Uster
1662023761-957,"Oberlandstr. 75, 8610 Uster, ZH",47.35482406616211,8.715861320495605,198,Uster
1662023707-551,"Ifangweg 7, 8610 Uster, ZH",47.3585090637207,8.714330673217773,198,Uster
1662023789-1155,"Brunnenwiesenstr. 40, 8610 Uster, ZH",47.3547248840332,8.717199325561523,198,Uster
1662023758-935,"Aathalstrasse 34, 8610 Uster, ZH",47.345298767089844,8.72988510131836,198,Uster
1662023780-1082,"Wermatswilerstrasse 91, 8610 Uster, ZH",47.35652542114258,8.729662895202637,198,Uster
1662023767-1002,"Breitigasse 5, 8610 Uster, ZH",47.34422302246094,8.734959602355957,198,Uster
1662023758-925,"Stöcklerstr. 6, 8610 Uster, ZH",47.343082427978516,8.734877586364746,198,Uster
1662023717-618,"Zeltweg 23, 8610 Uster, ZH",47.34798812866211,8.709195137023926,198,Uster
1662023795-1201,"Oberlandstr. 75, 8610 Uster, ZH",47.35482406616211,8.715861320495605,198,Uster
1662023767-1000,"Oberlandstr. 75, 8610 Uster, ZH",47.35482406616211,8.715861320495605,198,Uster
1662023795-1224,"Alte Blindenholzstrasse 3, 8616 Riedikon, ZH",47.33308029174805,8.712552070617676,198,Uster
1662023720-625,"Seestrasse 139, 8610 Uster, ZH",47.345420837402344,8.697589874267578,198,Uster
1662023807-1297,"Ifangweg 11, 8610 Uster, ZH",47.358299255371094,8.715127944946289,198,Uster
1662023807-1299,"Archstrasse 13, 8610 Uster, ZH",47.3439826965332,8.731561660766602,198,Uster
1662023758-917,"Bankstrasse 27, 8610 Uster, ZH",47.351776123046875,8.715166091918945,198,Uster
1662023758-924,"Breitigasse 9, 8610 Uster, ZH",47.34457015991211,8.7345552444458,198,Uster
1662023786-1140,"Gschwaderstrasse 40, 8610 Uster, ZH",47.35831832885742,8.713147163391113,198,Uster
1662023758-929,"Frohbergstr. 7, 8162 Steinmaur, ZH",47.48908615112305,8.448234558105469,101,Steinmaur
1662023727-685,"8306 Brüttisellen, ZH",47.42464065551758,8.63316535949707,200,Wangen-Brüttisellen
1662023736-749,"Eichstrasse 1, 8306 Brüttisellen, ZH",47.424320220947266,8.63115119934082,200,Wangen-Brüttisellen
1662023733-725,"Wülflingerstrasse 48, 8400 Winterthur, ZH",47.506534576416016,8.714888572692871,230,Winterthur
1662023733-731,"St. Gallerstrasse 42d, 8400 Winterthur, ZH",47.49749755859375,8.738823890686035,230,Winterthur
1662023777-1057,"Wartstr. 28, 8400 Winterthur, ZH",47.50136184692383,8.720966339111328,230,Winterthur
1662023736-746,"Landvogt-Waser-Strasse 67, 8405 Winterthur, ZH",47.48586654663086,8.765941619873047,230,Winterthur
1662023739-784,"Wingertlistrasse 9, 8405 Winterthur, ZH",47.49017333984375,8.761757850646973,230,Winterthur
1662023739-775,"Hulfteggstrasse 16, 8400 Winterthur, ZH",47.49134826660156,8.753072738647461,230,Winterthur
1662023774-1040,"Seuzacherstr. 9a, 8400 Winterthur, ZH",47.51836013793945,8.72063159942627,230,Winterthur
1662023723-659,"Oberseenerstrasse 77, 8405 Winterthur, ZH",47.48025131225586,8.771097183227539,230,Winterthur
1662023752-873,"Scheideggstrasse 8, 8400 Winterthur, ZH",47.49159622192383,8.750418663024902,230,Winterthur
1662023742-795,"Bollstrasse 64, 8405 Winterthur, ZH",47.48073196411133,8.759271621704102,230,Winterthur
1662023774-1054,"Scherrerstrasse 8, 8400 Winterthur, ZH",47.49733352661133,8.74233627319336,230,Winterthur
1662023698-475,"Zürcherstrasse 57, 8406 Winterthur, ZH",47.494544982910156,8.711798667907715,230,Winterthur
1662023736-760,"Tösstalstrasse 174, 8400 Winterthur, ZH",47.488746643066406,8.75119686126709,230,Winterthur
1662023813-1351,"Bollstrasse 66, 8405 Winterthur, ZH",47.480735778808594,8.759693145751953,230,Winterthur
1662023749-855,"Pionierstr. 22, 8400 Winterthur, ZH",47.49772262573242,8.719924926757812,230,Winterthur
1662023752-888,"Zürcherstrasse 54, 8406 Winterthur, ZH",47.49507141113281,8.711730003356934,230,Winterthur
1662023761-953,"Jägerstrasse 59, 8406 Winterthur, ZH",47.4949951171875,8.713829040527344,230,Winterthur
1662023758-914,"Endlikerstrasse 106, 8400 Winterthur, ZH",47.48758316040039,8.752320289611816,230,Winterthur
1662023804-1273,"Waldeggstrasse 8, 8405 Winterthur, ZH",47.48252487182617,8.759597778320312,230,Winterthur
1662023698-459,"General-Guisan-Strasse 25, 8400 Winterthur, ZH",47.49905014038086,8.733027458190918,230,Winterthur
1662023786-1138,"Gottfried Keller-Strasse 77, 8400 Winterthur, ZH",47.50571823120117,8.730652809143066,230,Winterthur
1662023761-938,"Landvogt-Waser-Strasse 69, 8405 Winterthur, ZH",47.4857292175293,8.766179084777832,230,Winterthur
1662023736-748,"Giesserstrasse 15, 8406 Winterthur, ZH",47.49040603637695,8.714092254638672,230,Winterthur
1662023720-646,"Wülflingerstrasse 151a, 8408 Winterthur, ZH",47.50883865356445,8.704948425292969,230,Winterthur
1662023707-531,"Zürcherstrasse 57, 8406 Winterthur, ZH",47.494544982910156,8.711798667907715,230,Winterthur
1662023717-615,"Florenstrasse 56, 8405 Winterthur, ZH",47.48488998413086,8.773792266845703,230,Winterthur
1662023771-1015,"Heiniweg 16, 8404 Winterthur, ZH",47.519168853759766,8.764608383178711,230,Winterthur
1662023795-1211,"Agnesstrasse 2, 8406 Winterthur, ZH",47.494720458984375,8.714877128601074,230,Winterthur
1662023804-1293,"Alte Römerstrasse 24, 8404 Winterthur, ZH",47.50394821166992,8.748668670654297,230,Winterthur
1662023761-960,"Sulzbergstrasse 8, 8400 Winterthur, ZH",47.503273010253906,8.7293701171875,230,Winterthur
1662023745-829,"Rychenbergstr. 61, 8400 Winterthur, ZH",47.508514404296875,8.729952812194824,230,Winterthur
1662023736-745,"Landvogt-Waser-Strasse 69, 8405 Winterthur, ZH",47.4857292175293,8.766179084777832,230,Winterthur
1662023745-826,"Wülflingerstrasse 349, 8408 Winterthur, ZH",47.51451873779297,8.683442115783691,230,Winterthur
1662023789-1154,"Konradstrasse 12, 8400 Winterthur, ZH",47.5020751953125,8.722041130065918,230,Winterthur
1662023767-997,"Wülflingerstrasse 151a, 8408 Winterthur, ZH",47.50883865356445,8.704948425292969,230,Winterthur
1662023717-620,"Else-Züblin-Strasse 112, 8404 Winterthur, ZH",47.50380325317383,8.763983726501465,230,Winterthur
1662023795-1204,"Else-Züblin-Str. 74, 8404 Winterthur, ZH",47.50324630737305,8.765312194824219,230,Winterthur
1662023774-1035,"Kreuzstrasse 7, 8400 Winterthur, ZH",47.50360870361328,8.72900104522705,230,Winterthur
1662023798-1234,"Neuwiesenstrasse 31, 8400 Winterthur, ZH",47.5003662109375,8.719480514526367,230,Winterthur
1662023774-1036,"Kreuzstrasse 7, 8400 Winterthur, ZH",47.50360870361328,8.72900104522705,230,Winterthur
1662023813-1349,"Wülflingerstrasse 2, 8400 Winterthur, ZH",47.50292205810547,8.724250793457031,230,Winterthur
1662023752-868,"Poststrasse 1, 8406 Winterthur, ZH",47.490657806396484,8.705796241760254,230,Winterthur
1662023783-1120,"Unterwegli 35, 8404 Winterthur, ZH",47.504886627197266,8.752949714660645,230,Winterthur
1662023793-1191,"Else-Züblin-Strasse 73, 8404 Winterthur, ZH",47.50276184082031,8.763882637023926,230,Winterthur
1662023707-539,"Hulfteggstr. 19, 8400 Winterthur, ZH",47.49119567871094,8.75192928314209,230,Winterthur
1662023804-1277,"Holzlegistr. 6, 8408 Winterthur, ZH",47.5120735168457,8.695403099060059,230,Winterthur
1662023783-1123,"Else-Züblin-Strasse 77, 8404 Winterthur, ZH",47.50312042236328,8.763753890991211,230,Winterthur
1662023789-1176,"Magazingasse 2, 8400 Winterthur, ZH",47.50620651245117,8.71890640258789,230,Winterthur
1662023764-965,"Schaffhauserstrasse 29, 8400 Winterthur, ZH",47.50638198852539,8.723402976989746,230,Winterthur
1662023698-462,"Schlosshofstrasse 21, 8400 Winterthur, ZH",47.49552917480469,8.711296081542969,230,Winterthur
1662023807-1304,"Breitestrasse 56, 8400 Winterthur, ZH",47.490455627441406,8.727546691894531,230,Winterthur
1662023707-534,"Tellstrasse 16a, 8400 Winterthur, ZH",47.50239181518555,8.720512390136719,230,Winterthur
1662023689-406,"Thurgauerstrasse 2, 8400 Winterthur, ZH",47.49839782714844,8.742392539978027,230,Winterthur
1662023736-758,"Nägelseestrasse 26, 8406 Winterthur, ZH",47.49116516113281,8.702677726745605,230,Winterthur
1662023764-977,"Türlimattstr. 1, 8404 Winterthur, ZH",47.50771713256836,8.74938678741455,230,Winterthur
1662023723-672,"Wülflingerstrasse 151b, 8408 Winterthur, ZH",47.508567810058594,8.704839706420898,230,Winterthur
1662023686-379,"Seenerstrasse 218, 8405 Winterthur, ZH",47.48553466796875,8.758892059326172,230,Winterthur
1662023786-1132,"Römerstrasse 52, 8400 Winterthur, ZH",47.50064468383789,8.743654251098633,230,Winterthur
1662023764-984,"Unt. Schöntalstrasse 5, 8406 Winterthur, ZH",47.49348831176758,8.708704948425293,230,Winterthur
1662023789-1156,"Weberstrasse 91, 8400 Winterthur, ZH",47.49053192138672,8.746732711791992,230,Winterthur
1662023749-864,"Jägerstrasse 59, 8406 Winterthur, ZH",47.4949951171875,8.713829040527344,230,Winterthur
1662023807-1302,"Sulzbergstrasse 8, 8400 Winterthur, ZH",47.503273010253906,8.7293701171875,230,Winterthur
1662023786-1141,"Hündlerstrasse 77, 8406 Winterthur, ZH",47.481689453125,8.69902229309082,230,Winterthur
1662023780-1089,"Else-Züblin-Strasse 77, 8404 Winterthur, ZH",47.50312042236328,8.763753890991211,230,Winterthur
1662023764-969,"Grüzefeldstrasse 44, 8400 Winterthur, ZH",47.49379348754883,8.751358032226562,230,Winterthur
1662023695-450,"Schaffhauserstrasse 32, 8400 Winterthur, ZH",47.507225036621094,8.723393440246582,230,Winterthur
1662023749-863,"Seuzacherstr. 11a, 8400 Winterthur, ZH",47.518707275390625,8.720742225646973,230,Winterthur
1662023733-741,"General-Guisan-Strasse 43, 8400 Winterthur, ZH",47.49982833862305,8.733386993408203,230,Winterthur
1662023777-1059,"Türlimattstr. 3, 8404 Winterthur, ZH",47.507991790771484,8.749725341796875,230,Winterthur
1662023783-1105,"Katharina Sulzer Platz 8, 8400 Winterthur, ZH",47.496971130371094,8.717944145202637,230,Winterthur
1662023810-1327,"Hulfteggstrasse 18, 8400 Winterthur, ZH",47.49177169799805,8.75317096710205,230,Winterthur
1662023764-976,"Schulergasse 4, 8406 Winterthur, ZH",47.4910888671875,8.705008506774902,230,Winterthur
1662023795-1205,"Steiggasse 4, 8400 Winterthur, ZH",47.498043060302734,8.727981567382812,230,Winterthur
1662023752-885,"Hegifeldstrasse 64, 8404 Winterthur, ZH",47.50727081298828,8.76787281036377,230,Winterthur
1662023739-783,"Espenstr. 73, 8408 Winterthur, ZH",47.50705337524414,8.680699348449707,230,Winterthur
1662023801-1255,"Wingertlistrasse 19, 8405 Winterthur, ZH",47.48936462402344,8.760986328125,230,Winterthur
1662023742-813,"Reutlingerstr. 17, 8404 Winterthur, ZH",47.522037506103516,8.75655746459961,230,Winterthur
1662023767-996,"Claisstrasse 11, 8408 Winterthur, ZH",47.51573181152344,8.685565948486328,230,Winterthur
1662023720-645,"Rümikerstrasse 36, 8409 Winterthur, ZH",47.5040168762207,8.769974708557129,230,Winterthur
1662023758-932,"Seuzacherstr. 9b, 8400 Winterthur, ZH",47.51848220825195,8.719965934753418,230,Winterthur
1662023695-451,"Rütlistr. 17, 8400 Winterthur, ZH",47.50872802734375,8.72221565246582,230,Winterthur
1662023767-986,"Jägerstrasse 59, 8406 Winterthur, ZH",47.4949951171875,8.713829040527344,230,Winterthur
1662023752-884,"Zürcherstrasse 58, 8406 Winterthur, ZH",47.49482345581055,8.711419105529785,230,Winterthur
1662023689-396,"Rosentalstrasse 72, 8400 Winterthur, ZH",47.51045227050781,8.723488807678223,230,Winterthur
1662023714-600,"Sonnenblickstrasse 23, 8404 Winterthur, ZH",47.516544342041016,8.758272171020508,230,Winterthur
1662023795-1212,"Feldstrasse 16, 8400 Winterthur, ZH",47.506431579589844,8.718624114990234,230,Winterthur
1662023793-1181,"Schützenstrasse 42, 8400 Winterthur, ZH",47.50262451171875,8.718854904174805,230,Winterthur
1662023701-491,"Schlossackerstrasse 11, 8404 Winterthur, ZH",47.50833511352539,8.767489433288574,230,Winterthur
1662023807-1301,"Eichliackerstrasse 18, 8406 Winterthur, ZH",47.48926544189453,8.713685989379883,230,Winterthur
1662023789-1159,"Else-Züblin-Strasse 73, 8404 Winterthur, ZH",47.50276184082031,8.763882637023926,230,Winterthur
1662023758-930,"Bollstrasse 39, 8405 Winterthur, ZH",47.481319427490234,8.760581016540527,230,Winterthur
1662023795-1202,"Bettenstrasse 66, 8400 Winterthur, ZH",47.515464782714844,8.716787338256836,230,Winterthur
1662023723-656,"8409 Winterthur, ZH",47.50626754760742,8.779024124145508,230,Winterthur
1662023801-1257,"Einfangstrasse 13, 8406 Winterthur, ZH",47.491580963134766,8.709972381591797,230,Winterthur
1662023733-732,"Hegifeldstrasse 66, 8404 Winterthur, ZH",47.5070686340332,8.767720222473145,230,Winterthur
1662023733-729,"Jägerstrasse 59, 8406 Winterthur, ZH",47.4949951171875,8.713829040527344,230,Winterthur
1662023764-982,"Weststr. 131, 8408 Winterthur, ZH",47.50980758666992,8.705296516418457,230,Winterthur
1662023755-902,"Oberfeldstrasse 2, 8408 Winterthur, ZH",47.50580596923828,8.707270622253418,230,Winterthur
1662023774-1048,"Robert-Sulzer-Gasse 4, 8400 Winterthur, ZH",47.49491500854492,8.716140747070312,230,Winterthur
1662023730-705,"Tösstalstrasse 345, 8482 Sennhof (Winterthur), ZH",47.46803665161133,8.760699272155762,230,Winterthur
1662023774-1034,"Kreuzstrasse 7, 8400 Winterthur, ZH",47.50360870361328,8.72900104522705,230,Winterthur
1662023745-817,"Riedhofstrasse 58, 8408 Winterthur, ZH",47.51362609863281,8.694538116455078,230,Winterthur
1662023804-1284,"Else-Züblin-Strasse 106, 8404 Winterthur, ZH",47.503868103027344,8.764745712280273,230,Winterthur
1662023730-697,"Scheideggstrasse 8, 8400 Winterthur, ZH",47.49159622192383,8.750418663024902,230,Winterthur
1662023720-644,"Burstwiesenstr. 16, 8606 Greifensee, ZH",47.36891555786133,8.680346488952637,194,Greifensee
1662023714-599,"Burstwiesenstr. 22, 8606 Greifensee, ZH",47.36946487426758,8.679994583129883,194,Greifensee
1662023752-881,"Sandbüelstrasse 44, 8606 Greifensee, ZH",47.37326431274414,8.676733016967773,194,Greifensee
1662023771-1017,"Müllerwis 30, 8606 Greifensee, ZH",47.369266510009766,8.681855201721191,194,Greifensee
1662023736-765,"Burstwiesenstr. 22, 8606 Greifensee, ZH",47.36946487426758,8.679994583129883,194,Greifensee
1662023771-1027,"Müllerwis 25, 8606 Greifensee, ZH",47.370811462402344,8.682324409484863,194,Greifensee
1662023810-1335,"Am Pfisterhölzli 36, 8606 Greifensee, ZH",47.36343765258789,8.69112777709961,194,Greifensee
1662023739-782,"Bergacherstrasse 4, 8630 Rüti ZH, ZH",47.250694274902344,8.85564136505127,118,Rüti (ZH)
1662023730-707,"Walderstrasse 103, 8630 Rüti ZH, ZH",47.26651382446289,8.867326736450195,118,Rüti (ZH)
1662023689-408,"Widenweg 12, 8630 Rüti ZH, ZH",47.253623962402344,8.85413646697998,118,Rüti (ZH)
1662023689-407,"Werkstrasse 47, 8630 Rüti ZH, ZH",47.252437591552734,8.853998184204102,118,Rüti (ZH)
1662023707-548,"Moosstrasse 22, 8630 Rüti ZH, ZH",47.254005432128906,8.855942726135254,118,Rüti (ZH)
1662023723-663,"Bachtelstrasse 24b, 8630 Rüti ZH, ZH",47.26611328125,8.86687183380127,118,Rüti (ZH)
1662023723-668,"Werkstrasse 47, 8630 Rüti ZH, ZH",47.252437591552734,8.853998184204102,118,Rüti (ZH)
1662023739-792,"Frohwiesstrasse 14, 8630 Rüti ZH, ZH",47.26621627807617,8.868329048156738,118,Rüti (ZH)
1662023707-540,"Aronenweg 9, 8618 Oetwil am See, ZH",47.276031494140625,8.718671798706055,157,Oetwil am See
1662023783-1117,"Glärnischstrasse 62, 8618 Oetwil am See, ZH",47.27785873413086,8.720203399658203,157,Oetwil am See
1662023707-537,"Aronenweg 17, 8618 Oetwil am See, ZH",47.275535583496094,8.718412399291992,157,Oetwil am See
1662023707-538,"Pilatusstrasse 14, 8330 Pfäffikon ZH, ZH",47.364253997802734,8.783860206604004,177,Pfäffikon
1662023711-561,"Schulstrasse 26a, 8330 Pfäffikon ZH, ZH",47.36679458618164,8.781128883361816,177,Pfäffikon
1662023698-479,"Obermattstrasse 82, 8330 Pfäffikon ZH, ZH",47.370731353759766,8.782037734985352,177,Pfäffikon
1662023695-439,"Steinackerstrasse 25, 8330 Pfäffikon ZH, ZH",47.37303924560547,8.780903816223145,177,Pfäffikon
1662023686-369,"Schärackerstrasse 15, 8330 Pfäffikon ZH, ZH",47.37131118774414,8.779349327087402,177,Pfäffikon
1662023789-1161,"Nelkenstr. 9, 8330 Pfäffikon ZH, ZH",47.37203598022461,8.784619331359863,177,Pfäffikon
1662023767-1001,"Nelkenstr. 2, 8330 Pfäffikon ZH, ZH",47.37173843383789,8.784454345703125,177,Pfäffikon
1662023736-761,"Tunnelstr. 7, 8330 Pfäffikon ZH, ZH",47.36857604980469,8.781661033630371,177,Pfäffikon
1662023780-1084,"Nelkenstr. 2, 8330 Pfäffikon ZH, ZH",47.37173843383789,8.784454345703125,177,Pfäffikon
1662023793-1179,"Bachtelstrasse 57, 8330 Pfäffikon ZH, ZH",47.36494064331055,8.791268348693848,177,Pfäffikon
1662023695-442,"Schärackerstrasse 9, 8330 Pfäffikon ZH, ZH",47.371185302734375,8.779633522033691,177,Pfäffikon
1662023767-990,"Nelkenstr. 9, 8330 Pfäffikon ZH, ZH",47.37203598022461,8.784619331359863,177,Pfäffikon
1662023717-608,"Tunnelstr. 5, 8330 Pfäffikon ZH, ZH",47.36875915527344,8.780900001525879,177,Pfäffikon
1662023771-1016,"Schulstrasse 12, 8330 Pfäffikon ZH, ZH",47.36713790893555,8.780004501342773,177,Pfäffikon
1662023795-1214,"Hittnauerstrasse 62, 8330 Pfäffikon ZH, ZH",47.364715576171875,8.796123504638672,177,Pfäffikon
1662023707-532,"Hochstrasse 141, 8330 Pfäffikon ZH, ZH",47.36073303222656,8.793621063232422,177,Pfäffikon
1662023701-497,"Kempttalstrasse 43, 8330 Pfäffikon ZH, ZH",47.36790084838867,8.780043601989746,177,Pfäffikon
1662023777-1071,"Pilatusstrasse 22, 8330 Pfäffikon ZH, ZH",47.36396408081055,8.783564567565918,177,Pfäffikon
1662023730-704,"Dorfstrasse 84, 8954 Geroldswil, ZH",47.42408752441406,8.411906242370605,244,Geroldswil
1662023774-1039,"Dorfstrasse 100, 8954 Geroldswil, ZH",47.424278259277344,8.409123420715332,244,Geroldswil
1662023723-660,"Brunaustrasse 160, 8951 Fahrweid, ZH",47.412540435791016,8.417913436889648,244,Geroldswil
1662023783-1114,"Huebwiesenstrasse 20, 8954 Geroldswil, ZH",47.4210090637207,8.412511825561523,244,Geroldswil
1662023692-432,"8954 Geroldswil, ZH",47.425453186035156,8.410881042480469,244,Geroldswil
1662023689-390,"8954 Geroldswil, ZH",47.425453186035156,8.410881042480469,244,Geroldswil
1662023771-1023,"Soodstrasse 13, 8134 Adliswil, ZH",47.313804626464844,8.526074409484863,131,Adliswil
1662023771-1012,"Rütistr. 28, 8134 Adliswil, ZH",47.30426788330078,8.529253959655762,131,Adliswil
1662023730-720,"Parkweg 10, 8134 Adliswil, ZH",47.322505950927734,8.53007984161377,131,Adliswil
1662023698-473,"Kronenstrasse 3, 8134 Adliswil, ZH",47.311859130859375,8.527588844299316,131,Adliswil
1662023730-719,"Salamanderweg 3, 8134 Adliswil, ZH",47.32252502441406,8.530826568603516,131,Adliswil
1662023774-1051,"Breitenstrasse 12, 8134 Adliswil, ZH",47.306331634521484,8.5193452835083,131,Adliswil
1662023730-718,"Parkweg 8, 8134 Adliswil, ZH",47.322261810302734,8.53016471862793,131,Adliswil
1662023810-1330,"Oberhusstrasse 24, 8134 Adliswil, ZH",47.29860305786133,8.523846626281738,131,Adliswil
1662023798-1232,"Rainstrasse 10, 8134 Adliswil, ZH",47.32304763793945,8.51756763458252,131,Adliswil
1662023695-440,"Im Sihlhof 2, 8134 Adliswil, ZH",47.321224212646484,8.522125244140625,131,Adliswil
1662023701-500,"Zelgstrasse 48, 8134 Adliswil, ZH",47.31568908691406,8.517690658569336,131,Adliswil
1662023767-998,"Steinmürlistrasse 42, 8953 Dietikon, ZH",47.40464401245117,8.392952919006348,243,Dietikon
1662023807-1298,"Grünaustrasse 12, 8953 Dietikon, ZH",47.4099235534668,8.403440475463867,243,Dietikon
1662023810-1344,"Grünaustrasse 10, 8953 Dietikon, ZH",47.40949249267578,8.403727531433105,243,Dietikon
1662023689-387,"Winzerstrasse 17, 8953 Dietikon, ZH",47.400360107421875,8.386734008789062,243,Dietikon
1662023739-779,"Alfred Comte-Strasse 3, 8953 Dietikon, ZH",47.409637451171875,8.406033515930176,243,Dietikon
1662023798-1248,"Überlandstr. 26, 8953 Dietikon, ZH",47.40888214111328,8.40406608581543,243,Dietikon
1662023739-778,"Bleicherstrasse 43, 8953 Dietikon, ZH",47.408565521240234,8.395078659057617,243,Dietikon
1662023783-1106,"Zentralstr. 6, 8953 Dietikon, ZH",47.40494155883789,8.400984764099121,243,Dietikon
1662023783-1116,"Steinmürlistrasse 3, 8953 Dietikon, ZH",47.40771484375,8.39243221282959,243,Dietikon
1662023771-1031,"Heimstrasse 12, 8953 Dietikon, ZH",47.409934997558594,8.40533447265625,243,Dietikon
1662023714-596,"8953 Dietikon, ZH",47.40451431274414,8.402215957641602,243,Dietikon
1662023692-430,"Bohnäckerstr. 11, 8955 Oetwil an der Limmat, ZH",47.427955627441406,8.391122817993164,243,Dietikon
1662023807-1314,"Webereistrasse 8, 8953 Dietikon, ZH",47.409847259521484,8.404328346252441,243,Dietikon
1662023798-1226,"Rebackerstrasse 31, 8955 Oetwil an der Limmat, ZH",47.426002502441406,8.397468566894531,243,Dietikon
1662023795-1215,"Lägernstrasse 20, 8953 Dietikon, ZH",47.405677795410156,8.394124031066895,243,Dietikon
1662023714-578,"Limmatwiesenstr. 22, 8955 Oetwil an der Limmat, ZH",47.42788314819336,8.393007278442383,243,Dietikon
1662023786-1134,"Ueberlandstr. 14, 8953 Dietikon, ZH",47.408695220947266,8.40636157989502,243,Dietikon
1662023764-967,"Webereistrasse 3, 8953 Dietikon, ZH",47.40999984741211,8.404282569885254,243,Dietikon
1662023755-911,"Ueberlandstrasse 125, 8953 Dietikon, ZH",47.409141540527344,8.393057823181152,243,Dietikon
1662023793-1200,"Obere Leihofstrasse 13, 8820 Wädenswil, ZH",47.22357177734375,8.666900634765625,293,Wädenswil
1662023761-955,"Alte Landstrasse 99, 8804 Au ZH, ZH",47.247032165527344,8.634622573852539,293,Wädenswil
1662023783-1125,"Kirchrain 1A, 8824 Schönenberg ZH, ZH",47.193382263183594,8.644906997680664,293,Wädenswil
1662023798-1235,"Seestrasse 131, 8820 Wädenswil, ZH",47.23108673095703,8.672642707824707,293,Wädenswil
1662023813-1347,"Rotweg 43, 8820 Wädenswil, ZH",47.22712326049805,8.662622451782227,293,Wädenswil
1662023780-1085,"Kirchrain 1, 8824 Schönenberg ZH, ZH",47.19331359863281,8.645079612731934,293,Wädenswil
1662023783-1121,"Obere Leihofstrasse 11, 8820 Wädenswil, ZH",47.22368240356445,8.66706371307373,293,Wädenswil
1662023736-750,"8820 Wädenswil, ZH",47.22698211669922,8.662249565124512,293,Wädenswil
1662023783-1122,"Obere Leihofstrasse 13, 8820 Wädenswil, ZH",47.22357177734375,8.666900634765625,293,Wädenswil
1662023692-411,"8820 Wädenswil, ZH",47.22698211669922,8.662249565124512,293,Wädenswil
1662023777-1072,"Obere Leihofstrasse 13, 8820 Wädenswil, ZH",47.22357177734375,8.666900634765625,293,Wädenswil
1662023720-632,"Am Gulmenbach 10, 8820 Wädenswil, ZH",47.23025894165039,8.656451225280762,293,Wädenswil
1662023723-661,"8820 Wädenswil, ZH",47.22698211669922,8.662249565124512,293,Wädenswil
1662023789-1153,"Obere Leihofstrasse 11, 8820 Wädenswil, ZH",47.22368240356445,8.66706371307373,293,Wädenswil
1662023711-571,"Schönenbergstrasse 30, 8820 Wädenswil, ZH",47.22728729248047,8.669577598571777,293,Wädenswil
1662023714-592,"Holzmoosrütistrasse 44a, 8820 Wädenswil, ZH",47.23556900024414,8.650527000427246,293,Wädenswil
1662023733-730,"Holzmoosrütistrasse 44a, 8820 Wädenswil, ZH",47.23556900024414,8.650527000427246,293,Wädenswil
1662023793-1197,"Obere Leihofstrasse 11, 8820 Wädenswil, ZH",47.22368240356445,8.66706371307373,293,Wädenswil
1662023789-1158,"Obere Leihofstrasse 9, 8820 Wädenswil, ZH",47.22379684448242,8.667224884033203,293,Wädenswil
1662023777-1073,"Seestrasse 147, 8820 Wädenswil, ZH",47.23194885253906,8.67097282409668,293,Wädenswil
1662023793-1199,"Obere Leihofstrasse 13, 8820 Wädenswil, ZH",47.22357177734375,8.666900634765625,293,Wädenswil
1662023730-714,"8820 Wädenswil, ZH",47.22698211669922,8.662249565124512,293,Wädenswil
1662023686-366,"Alte Landstrasse 95, 8804 Au ZH, ZH",47.24683380126953,8.636049270629883,293,Wädenswil
1662023695-447,"Mühlestalden 4, 8824 Schönenberg ZH, ZH",47.199119567871094,8.654162406921387,293,Wädenswil
1662023777-1074,"Auerenstrasse 14, 8820 Wädenswil, ZH",47.229774475097656,8.666169166564941,293,Wädenswil
1662023704-521,"Am Gulmenbach 6, 8820 Wädenswil, ZH",47.23059844970703,8.655874252319336,293,Wädenswil
1662023786-1136,"Obere Leihofstrasse 13, 8820 Wädenswil, ZH",47.22357177734375,8.666900634765625,293,Wädenswil
1662023692-420,"Zürcherstrasse 10, 8193 Eglisau, ZH",47.57310104370117,8.523083686828613,55,Eglisau
1662023720-641,"Sandgruebstrasse 9, 8193 Eglisau, ZH",47.56932067871094,8.523771286010742,55,Eglisau
1662023692-418,"Zürcherstrasse 10, 8193 Eglisau, ZH",47.57310104370117,8.523083686828613,55,Eglisau
1662023711-556,"8193 Eglisau, ZH",47.57356262207031,8.520898818969727,55,Eglisau
1662023771-1014,"Alte Landstrasse 29c, 8193 Eglisau, ZH",47.57099151611328,8.526036262512207,55,Eglisau
1662023692-421,"Zürcherstrasse 10, 8193 Eglisau, ZH",47.57310104370117,8.523083686828613,55,Eglisau
1662023742-797,"8193 Eglisau, ZH",47.57356262207031,8.520898818969727,55,Eglisau
1662023692-419,"Zürcherstrasse 10, 8193 Eglisau, ZH",47.57310104370117,8.523083686828613,55,Eglisau
1662023730-701,"Pfruendmattstrasse 11, 8932 Mettmenstetten, ZH",47.24324035644531,8.465059280395508,9,Mettmenstetten
1662023813-1346,"Rossauerstrasse 25, 8932 Mettmenstetten, ZH",47.24093246459961,8.467613220214844,9,Mettmenstetten
1662023727-673,"Albisstrasse 11, 8932 Mettmenstetten, ZH",47.24422073364258,8.464112281799316,9,Mettmenstetten
1662023698-477,"Obere Fischbachstrasse 14, 8932 Mettmenstetten, ZH",47.24623107910156,8.461980819702148,9,Mettmenstetten
1662023698-474,"Goethestr. 26, 8712 Stäfa, ZH",47.240726470947266,8.724349021911621,158,Stäfa
1662023739-769,"Allenbergstrasse 25, 8712 Stäfa, ZH",47.2496223449707,8.722038269042969,158,Stäfa
1662023689-386,"Eichstrasse 87a, 8713 Uerikon, ZH",47.23775863647461,8.74950885772705,158,Stäfa
1662023789-1169,"Tödihof 1, 8712 Stäfa, ZH",47.24312210083008,8.724576950073242,158,Stäfa
1662023793-1188,"Bahnhofstrasse 25, 8712 Stäfa, ZH",47.24042510986328,8.72176456451416,158,Stäfa
1662023774-1049,"Trübelstrasse 51, 8712 Stäfa, ZH",47.2474479675293,8.723974227905273,158,Stäfa
1662023717-605,"Schwylerstr. 22, 8712 Stäfa, ZH",47.24040985107422,8.737948417663574,158,Stäfa
1662023798-1240,"Eichstrasse 34b, 8712 Stäfa, ZH",47.236820220947266,8.740518569946289,158,Stäfa
1662023780-1100,"Hauflandweg 18, 8605 Gutenswil, ZH",47.38703155517578,8.718835830688477,199,Volketswil
1662023761-937,"Bachtelweg 9, 8604 Volketswil, ZH",47.390411376953125,8.68159294128418,199,Volketswil
1662023810-1329,"Ifangstrasse 33, 8604 Volketswil, ZH",47.39091110229492,8.67777156829834,199,Volketswil
1662023752-883,"Pfäffikerstrasse 119, 8605 Gutenswil, ZH",47.38532638549805,8.717787742614746,199,Volketswil
1662023777-1062,"Ifangstrasse 48, 8604 Volketswil, ZH",47.39152526855469,8.676628112792969,199,Volketswil
1662023723-652,"Sunnebüelstr. 41, 8604 Volketswil, ZH",47.39354705810547,8.681330680847168,199,Volketswil
1662023810-1337,"Säntisweg 5, 8604 Volketswil, ZH",47.395355224609375,8.680856704711914,199,Volketswil
1662023720-635,"Sagirain 2, 8605 Gutenswil, ZH",47.385475158691406,8.715425491333008,199,Volketswil
1662023707-535,"Säntisweg 3, 8604 Volketswil, ZH",47.394859313964844,8.680851936340332,199,Volketswil
1662023777-1061,"Rigiweg 10, 8604 Volketswil, ZH",47.391014099121094,8.682113647460938,199,Volketswil
1662023723-653,"Sunnebüelstr. 25, 8604 Volketswil, ZH",47.392845153808594,8.681580543518066,199,Volketswil
1662023777-1076,"Ifangstrasse 50, 8604 Volketswil, ZH",47.39119338989258,8.676480293273926,199,Volketswil
1662023752-875,"Brunnenrain 18, 8415 Berg am Irchel, ZH",47.5706901550293,8.596415519714355,23,Berg am Irchel
1662023689-402,"Dorfstrasse 31, 8196 Wil ZH, ZH",47.60468292236328,8.508256912231445,71,Wil (ZH)
1662023689-401,"Dorfstrasse 31, 8196 Wil ZH, ZH",47.60468292236328,8.508256912231445,71,Wil (ZH)
1662023692-429,"Im Riet 14, 8427 Freienstein, ZH",47.53696060180664,8.580428123474121,68,Rorbas
1662023711-553,"8192 Glattfelden, ZH",47.56193923950195,8.499773979187012,58,Glattfelden
1662023707-541,"Eichhölzlistrasse 38, 8192 Glattfelden, ZH",47.55503463745117,8.505518913269043,58,Glattfelden
1662023701-484,"8192 Glattfelden, ZH",47.56193923950195,8.499773979187012,58,Glattfelden
1662023777-1079,"Seestrasse 65, 8810 Horgen, ZH",47.264278411865234,8.589810371398926,295,Horgen
1662023730-706,"8810 Horgen, ZH",47.2366828918457,8.618281364440918,295,Horgen
1662023727-681,"Schleifetobelweg 20, 8810 Horgen, ZH",47.25609588623047,8.597591400146484,295,Horgen
1662023780-1097,"Kalkofenstr. 25, 8810 Horgen, ZH",47.24735641479492,8.60734748840332,295,Horgen
1662023813-1366,"Seegartenstrasse 68a, 8810 Horgen, ZH",47.26591110229492,8.589883804321289,295,Horgen
1662023810-1331,"Rotbühlstrasse 5, 8810 Horgen, ZH",47.26038360595703,8.589051246643066,295,Horgen
1662023727-693,"Dorfgasse 26, 8810 Horgen, ZH",47.260719299316406,8.599367141723633,295,Horgen
1662023755-910,"Neugasse 19, 8810 Horgen, ZH",47.25801086425781,8.588834762573242,295,Horgen
1662023698-465,"Seestrasse 148, 8810 Horgen, ZH",47.26029586791992,8.597851753234863,295,Horgen
1662023810-1332,"Einsiedlerstrasse 2, 8942 Oberrieden, ZH",47.270057678222656,8.58195972442627,295,Horgen
1662023689-394,"8810 Horgen, ZH",47.2366828918457,8.618281364440918,295,Horgen
1662023774-1050,"Drusbergstrasse 21, 8810 Horgen, ZH",47.253753662109375,8.59769344329834,295,Horgen
1662023727-690,"Waidlistrasse 82, 8810 Horgen, ZH",47.25424575805664,8.613272666931152,295,Horgen
1662023749-850,"Einsiedlerstrasse 226, 8810 Horgen, ZH",47.25436782836914,8.598150253295898,295,Horgen
1662023686-377,"Wassergass 21, 8810 Horgen, ZH",47.2468147277832,8.61152172088623,295,Horgen
1662023692-417,"Bärenweidstrasse 12, 8833 Samstagern, ZH",47.193599700927734,8.679973602294922,138,Richterswil
1662023720-639,"Zugerstrasse 36, 8805 Richterswil, ZH",47.20524215698242,8.701800346374512,138,Richterswil
1662023798-1225,"Bodenstrasse 21, 8805 Richterswil, ZH",47.207828521728516,8.695242881774902,138,Richterswil
1662023717-611,"Sternen 1, 8833 Samstagern, ZH",47.19702911376953,8.690900802612305,138,Richterswil
1662023755-903,"Feldstr. 19, 8805 Richterswil, ZH",47.209232330322266,8.689154624938965,138,Richterswil
1662023711-572,"Reidholzstrasse 28a, 8805 Richterswil, ZH",47.21195983886719,8.694021224975586,138,Richterswil
1662023686-376,"Obermülistrasse 39, 8320 Fehraltorf, ZH",47.38801956176758,8.747424125671387,172,Fehraltorf
1662023780-1093,"Grundstrasse 18, 8320 Fehraltorf, ZH",47.387691497802734,8.757163047790527,172,Fehraltorf
1662023764-961,"Mülistrasse 17, 8320 Fehraltorf, ZH",47.39019012451172,8.743782997131348,172,Fehraltorf
1662023804-1286,"Am Wildbach 7, 8320 Fehraltorf, ZH",47.38938522338867,8.744006156921387,172,Fehraltorf
1662023810-1336,"Am Burenbüel 7, 8320 Fehraltorf, ZH",47.383670806884766,8.759480476379395,172,Fehraltorf
1662023783-1126,"Grundstrasse 24, 8320 Fehraltorf, ZH",47.38648223876953,8.758552551269531,172,Fehraltorf
1662023711-554,"Mülistr. 2, 8320 Fehraltorf, ZH",47.391109466552734,8.744977951049805,172,Fehraltorf
1662023801-1269,"Büelstrasse 1, 8132 Egg b. Zürich, ZH",47.303279876708984,8.68857479095459,192,Egg
1662023733-735,"Bächelacherstrasse 9, 8132 Hinteregg, ZH",47.30830383300781,8.68037223815918,192,Egg
1662023717-616,"Leestrasse 22, 8132 Egg b. Zürich, ZH",47.29230499267578,8.696821212768555,192,Egg
1662023758-916,"Forchstrasse 185A, 8132 Hinteregg, ZH",47.30646514892578,8.682995796203613,192,Egg
1662023777-1065,"Boulevard Lilienthal 5, 8152 Opfikon, ZH",47.42422866821289,8.562675476074219,66,Opfikon
1662023742-806,"Dufaux-Strasse 47, 8152 Opfikon, ZH",47.42148971557617,8.561450958251953,66,Opfikon
1662023777-1066,"Rosenstrasse 6, 8152 Glattbrugg, ZH",47.43177032470703,8.564457893371582,66,Opfikon
1662023777-1064,"Boulevard Lilienthal 5, 8152 Opfikon, ZH",47.42422866821289,8.562675476074219,66,Opfikon
1662023745-831,"Dufaux-Strasse 60, 8152 Glattpark (Opfikon), ZH",47.4204216003418,8.562073707580566,66,Opfikon
1662023749-860,"Riethofstrasse 10c, 8152 Glattbrugg, ZH",47.43684005737305,8.567956924438477,66,Opfikon
1662023804-1276,"Giebeleichstr. 46, 8152 Glattbrugg, ZH",47.42832946777344,8.564550399780273,66,Opfikon
1662023813-1365,"Waldeggweg 2a, 8302 Kloten, ZH",47.44088363647461,8.57575511932373,66,Opfikon
1662023761-954,"Gartenstrasse 7, 8152 Glattbrugg, ZH",47.43251037597656,8.565811157226562,66,Opfikon
1662023736-755,"Oberhauserstrasse 12, 8152 Glattbrugg, ZH",47.43258285522461,8.566152572631836,66,Opfikon
1662023736-767,"Frohburgweg 5, 8180 Bülach, ZH",47.52424621582031,8.539907455444336,53,Bülach
1662023720-629,"Allmendstrasse 29, 8180 Bülach, ZH",47.514713287353516,8.533659934997559,53,Bülach
1662023720-627,"Allmendstrasse 29, 8180 Bülach, ZH",47.514713287353516,8.533659934997559,53,Bülach
1662023720-647,"Im Nippel 8, 8180 Bülach, ZH",47.51787567138672,8.531757354736328,53,Bülach
1662023733-733,"Sandstrasse 1, 8180 Bülach, ZH",47.52568817138672,8.541040420532227,53,Bülach
1662023698-464,"Fangletenstrasse 16, 8180 Bülach, ZH",47.52791976928711,8.538370132446289,53,Bülach
1662023714-595,"8180 Bülach, ZH",47.5200309753418,8.5663423538208,53,Bülach
1662023720-630,"Allmendstrasse 27, 8180 Bülach, ZH",47.514747619628906,8.533862113952637,53,Bülach
1662023804-1279,"Handgasse 6, 8180 Bülach, ZH",47.51361846923828,8.5423002243042,53,Bülach
1662023723-671,"Friedhofstr. 29, 8180 Bülach, ZH",47.517356872558594,8.546330451965332,53,Bülach
1662023733-737,"Lindenhofstrasse 4a, 8180 Bülach, ZH",47.52070236206055,8.538408279418945,53,Bülach
1662023807-1313,"Winterthurerstr. 11, 8180 Bülach, ZH",47.5196418762207,8.54224681854248,53,Bülach
1662023689-399,"Nordstrasse 15, 8180 Bülach, ZH",47.52280807495117,8.536508560180664,53,Bülach
1662023793-1177,"Gussstrasse 16, 8180 Bülach, ZH",47.52637481689453,8.537738800048828,53,Bülach
1662023749-849,"Sandstrasse 1, 8180 Bülach, ZH",47.52568817138672,8.541040420532227,53,Bülach
1662023767-1006,"8180 Bülach, ZH",47.5200309753418,8.5663423538208,53,Bülach
1662023720-628,"Allmendstrasse 29, 8180 Bülach, ZH",47.514713287353516,8.533659934997559,53,Bülach
1662023707-549,"Piazza Santeramo 1, 8180 Bülach, ZH",47.52568817138672,8.541040420532227,53,Bülach
1662023701-487,"Neugut 4, 8180 Bülach, ZH",47.524139404296875,8.540482521057129,53,Bülach
1662023749-848,"Kaffeestrasse 15, 8180 Bülach, ZH",47.51191329956055,8.5375394821167,53,Bülach
1662023807-1310,"Gussstrasse 46, 8180 Bülach, ZH",47.52552032470703,8.536998748779297,53,Bülach
1662023707-536,"Moritz Meyer-Weg 11, 8180 Bülach, ZH",47.514156341552734,8.545286178588867,53,Bülach
1662023745-819,"Handgasse 6, 8180 Bülach, ZH",47.51361846923828,8.5423002243042,53,Bülach
1662023727-682,"Südweg 6, 8180 Bülach, ZH",47.5123291015625,8.542059898376465,53,Bülach
1662023807-1320,"Frohburgweg 13, 8180 Bülach, ZH",47.52381134033203,8.53982162475586,53,Bülach
1662023704-506,"Pfarrhausstrasse 18a, 8344 Bäretswil, ZH",47.337013244628906,8.853507041931152,111,Bäretswil
1662023714-597,"8344 Bäretswil, ZH",47.322540283203125,8.8612060546875,111,Bäretswil
1662023692-427,"8421 Dättlikon, ZH",47.52411651611328,8.624934196472168,215,Dättlikon
1662023692-428,"8421 Dättlikon, ZH",47.52411651611328,8.624934196472168,215,Dättlikon
1662023686-363,"Pappelstr. 22, 8305 Dietlikon, ZH",47.41817855834961,8.62304973602295,54,Dietlikon
1662023736-763,"Riedmühlestr. 7b, 8305 Dietlikon, ZH",47.426753997802734,8.621732711791992,54,Dietlikon
1662023804-1278,"Altburgstr. 19, 8105 Regensdorf, ZH",47.42815399169922,8.47533893585205,96,Regensdorf
1662023758-923,"Schulstrasse 103, 8105 Regensdorf, ZH",47.435638427734375,8.4674654006958,96,Regensdorf
1662023774-1044,"Altburgstr. 15, 8105 Regensdorf, ZH",47.42799758911133,8.47488021850586,96,Regensdorf
1662023704-508,"Schulstrasse 175, 8105 Regensdorf, ZH",47.437828063964844,8.468487739562988,96,Regensdorf
1662023730-711,"Moosäckerstrasse 72, 8105 Regensdorf, ZH",47.43935012817383,8.456944465637207,96,Regensdorf
1662023701-504,"8105 Watt, ZH",47.444305419921875,8.485084533691406,96,Regensdorf
1662023810-1326,"Rebrainstrasse 23, 8106 Adlikon b. Regensdorf, ZH",47.45013427734375,8.466490745544434,96,Regensdorf
1662023727-683,"8105 Regensdorf, ZH",47.444305419921875,8.485084533691406,96,Regensdorf
1662023723-665,"Dorfstrasse 57, 8105 Watt, ZH",47.43975830078125,8.47802448272705,96,Regensdorf
1662023727-689,"Steinstrasse 14, 8106 Adlikon b. Regensdorf, ZH",47.452701568603516,8.462518692016602,96,Regensdorf
1662023789-1168,"Altburgstr. 19, 8105 Regensdorf, ZH",47.42815399169922,8.47533893585205,96,Regensdorf
1662023755-894,"Feldstrasse 26, 8105 Regensdorf, ZH",47.438716888427734,8.473904609680176,96,Regensdorf
1662023749-846,"Wehntalerstr. 321, 8106 Adlikon b. Regensdorf, ZH",47.45172119140625,8.465733528137207,96,Regensdorf
1662023764-979,"Altburgstr. 17, 8105 Regensdorf, ZH",47.42826843261719,8.474649429321289,96,Regensdorf
1662023804-1294,"Unterdorfstrasse 1,, 8113 Boppelsen, ZH",47.470767974853516,8.401324272155762,82,Boppelsen
1662023810-1341,"Stallikonerstr. 107, 8903 Birmensdorf ZH, ZH",47.35337448120117,8.460884094238281,242,Birmensdorf (ZH)
1662023689-403,"Panoramastrasse 3, 8903 Birmensdorf ZH, ZH",47.36023712158203,8.434920310974121,242,Birmensdorf (ZH)
1662023723-651,"Stallikonerstrasse 64, 8903 Birmensdorf ZH, ZH",47.355831146240234,8.446781158447266,242,Birmensdorf (ZH)
1662023764-963,"Breitestr. 3, 8903 Birmensdorf ZH, ZH",47.352378845214844,8.436046600341797,242,Birmensdorf (ZH)
1662023711-576,"Zürcherstrasse 13, 8903 Birmensdorf ZH, ZH",47.354129791259766,8.436495780944824,242,Birmensdorf (ZH)
1662023717-621,"Unter-Rüti 2, 8487 Zell ZH, ZH",47.444488525390625,8.816344261169434,231,Zell (ZH)
1662023798-1227,"Lindenstrasse 34, 8155 Niederhasli, ZH",47.48217010498047,8.489461898803711,90,Niederhasli
1662023771-1020,"Langackerweg 13, 8155 Niederhasli, ZH",47.483028411865234,8.48688793182373,90,Niederhasli
1662023698-480,"Sandrainstrasse 6, 8156 Oberhasli, ZH",47.46493911743164,8.498687744140625,90,Niederhasli
1662023774-1038,"Heiselstrasse 120, 8155 Niederhasli, ZH",47.481788635253906,8.497633934020996,90,Niederhasli
1662023723-669,"Lindenstrasse 32, 8155 Niederhasli, ZH",47.48271179199219,8.489599227905273,90,Niederhasli
1662023720-631,"Möslistrasse 40, 8155 Niederhasli, ZH",47.48173141479492,8.496448516845703,90,Niederhasli
1662023777-1068,"Langackerweg 13, 8155 Niederhasli, ZH",47.483028411865234,8.48688793182373,90,Niederhasli
1662023720-626,"Haagächerstrasse 12, 8155 Niederhasli, ZH",47.47222137451172,8.486286163330078,90,Niederhasli
1662023771-1019,"Langackerweg 13, 8155 Niederhasli, ZH",47.483028411865234,8.48688793182373,90,Niederhasli
1662023807-1319,"Gewerbestrasse 19, 8155 Niederhasli, ZH",47.47941970825195,8.497612953186035,90,Niederhasli
1662023686-370,"Lindenstrasse 28, 8155 Niederhasli, ZH",47.48271942138672,8.489215850830078,90,Niederhasli
1662023707-533,"Noeschikonerstr. 24, 8155 Niederhasli, ZH",47.48400115966797,8.486496925354004,90,Niederhasli
1662023795-1213,"Gewerbestrasse 21, 8155 Niederhasli, ZH",47.479454040527344,8.497410774230957,90,Niederhasli
1662023813-1353,"Rechweg 14, 8600 Dübendorf, ZH",47.400672912597656,8.62859058380127,191,Dübendorf
1662023727-687,"Wilstrasse 2, 8600 Dübendorf, ZH",47.396759033203125,8.617347717285156,191,Dübendorf
1662023717-613,"Rechweg 14, 8600 Dübendorf, ZH",47.400672912597656,8.62859058380127,191,Dübendorf
1662023789-1160,"Am Giessenpark 15, 8600 Dübendorf, ZH",47.40132141113281,8.612338066101074,191,Dübendorf
1662023810-1343,"Am Giessenpark 11, 8600 Dübendorf, ZH",47.40099334716797,8.612852096557617,191,Dübendorf
1662023783-1119,"Am Giessenpark 1, 8600 Dübendorf, ZH",47.401241302490234,8.611506462097168,191,Dübendorf
1662023733-727,"Überlandstrasse 206, 8600 Dübendorf, ZH",47.400718688964844,8.623079299926758,191,Dübendorf
1662023810-1342,"Zipartenstr. 45, 8600 Dübendorf, ZH",47.39463806152344,8.60456657409668,191,Dübendorf
1662023780-1101,"Höglerstrasse 43, 8600 Dübendorf, ZH",47.39238357543945,8.614373207092285,191,Dübendorf
1662023692-414,"Kunklerstrasse 34, 8600 Dübendorf, ZH",47.39944839477539,8.628541946411133,191,Dübendorf
1662023745-830,"Oberdorfstr. 98, 8600 Dübendorf, ZH",47.38787841796875,8.620838165283203,191,Dübendorf
1662023711-565,"Seestrasse 33, 8800 Thalwil, ZH",47.28500747680664,8.576184272766113,141,Thalwil
1662023727-679,"Im Lingg 2, 8800 Thalwil, ZH",47.291812896728516,8.563990592956543,141,Thalwil
1662023777-1075,"Bahnhofstr. 59, 8902 Urdorf, ZH",47.38587951660156,8.427583694458008,250,Urdorf
1662023780-1087,"Zürcherstrasse 236, 8953 Dietikon, ZH",47.39695739746094,8.425539016723633,250,Urdorf
1662023780-1095,"In der Fadmatt 59, 8902 Urdorf, ZH",47.383304595947266,8.428935050964355,250,Urdorf
1662023798-1245,"Bachstrasse 13, 8902 Urdorf, ZH",47.381263732910156,8.424240112304688,250,Urdorf
1662023727-694,"Säntisstrasse 6a, 8942 Oberrieden, ZH",47.2718505859375,8.575986862182617,137,Oberrieden
1662023689-393,"Otelfingerstrasse, 8115 Hüttikon, ZH",47.446380615234375,8.387629508972168,87,Hüttikon
1662023711-567,"Zürcherstrasse 19, 8115 Hüttikon, ZH",47.44628143310547,8.386636734008789,87,Hüttikon
1662023686-365,"Zelglistrasse 9, 8311 Brütten, ZH",47.47028350830078,8.673417091369629,213,Brütten
1662023727-677,"Brühlstrasse 4, 8311 Brütten, ZH",47.47344970703125,8.67549991607666,213,Brütten
1662023711-568,"Pfarrhausstrasse 28, 8424 Embrach, ZH",47.50019073486328,8.597267150878906,56,Embrach
1662023704-527,"Dorfstrasse 111, 8424 Embrach, ZH",47.50861740112305,8.593684196472168,56,Embrach
1662023801-1256,"Stationsstrasse 62, 8424 Embrach, ZH",47.51503372192383,8.590367317199707,56,Embrach
1662023807-1300,"Wildbachstrasse 17, 8424 Embrach, ZH",47.51191329956055,8.58958911895752,56,Embrach
1662023798-1247,"Wildbachstrasse 21, 8424 Embrach, ZH",47.51242446899414,8.589634895324707,56,Embrach
1662023752-887,"Hardstr. 26, 8424 Embrach, ZH",47.52228927612305,8.586134910583496,56,Embrach
1662023704-518,"Kirchstrasse 19, 8245 Feuerthalen, ZH",47.691505432128906,8.637733459472656,27,Feuerthalen
1662023711-570,"Hauptstrasse 72, 8246 Langwiesen, ZH",47.68478012084961,8.659786224365234,27,Feuerthalen
1662023771-1029,"Forenackerstrasse 6, 8246 Langwiesen, ZH",47.6853141784668,8.654377937316895,27,Feuerthalen
1662023707-543,"Bahnhofstrasse 83, 8245 Feuerthalen, ZH",47.687747955322266,8.649845123291016,27,Feuerthalen
1662023752-874,"Speerstrasse 12, 8637 Laupen ZH, ZH",47.26631164550781,8.920787811279297,120,Wald (ZH)
1662023810-1323,"Schibliraiweg 11, 8636 Wald ZH, ZH",47.273380279541016,8.919610977172852,120,Wald (ZH)
1662023742-808,"8636 Wald ZH, ZH",47.27473068237305,8.927553176879883,120,Wald (ZH)
1662023804-1275,"Neutalstrasse 18, 8636 Wald ZH, ZH",47.30300521850586,8.915440559387207,120,Wald (ZH)
1662023742-798,"8636 Wald ZH, ZH",47.27473068237305,8.927553176879883,120,Wald (ZH)
1662023707-550,"Maurstrasse 2, 8117 Fällanden, ZH",47.37052536010742,8.639469146728516,193,Fällanden
1662023727-678,"Zilstr. 7, 8117 Fällanden, ZH",47.37294387817383,8.63650894165039,193,Fällanden
1662023783-1109,"im Haufland 2, 8117 Fällanden, ZH",47.36838912963867,8.644584655761719,193,Fällanden
1662023686-372,"Zürichstrasse 82, 8118 Pfaffhausen, ZH",47.36402893066406,8.619695663452148,193,Fällanden
1662023745-818,"im Haufland 7, 8117 Fällanden, ZH",47.36782455444336,8.643950462341309,193,Fällanden
1662023686-375,"Zürichstrasse 82, 8118 Pfaffhausen, ZH",47.36402893066406,8.619695663452148,193,Fällanden
1662023714-588,"Waidstrasse 3, 8307 Effretikon, ZH",47.430694580078125,8.685787200927734,296,Illnau-Effretikon
1662023733-723,"Rebenstrasse 42, 8307 Effretikon, ZH",47.425533294677734,8.701360702514648,296,Illnau-Effretikon
1662023733-721,"Rebenstrasse 42, 8307 Effretikon, ZH",47.425533294677734,8.701360702514648,296,Illnau-Effretikon
1662023764-974,"Am Dorfbach 19, 8308 Illnau, ZH",47.411781311035156,8.721938133239746,296,Illnau-Effretikon
1662023711-575,"Am Dorfbach 17, 8308 Illnau, ZH",47.4116325378418,8.722024917602539,296,Illnau-Effretikon
1662023727-675,"Schlimpergstrasse 16, 8307 Effretikon, ZH",47.430213928222656,8.68522834777832,296,Illnau-Effretikon
1662023717-617,"Lindenstrasse 25, 8307 Effretikon, ZH",47.42894744873047,8.697382926940918,296,Illnau-Effretikon
1662023704-510,"Seemerrütiweg 4, 8483 Kollbrunn, ZH",47.457191467285156,8.770578384399414,296,Illnau-Effretikon
1662023733-722,"Rebenstrasse 42, 8307 Effretikon, ZH",47.425533294677734,8.701360702514648,296,Illnau-Effretikon
1662023801-1266,"Würglenstrasse 20, 8307 Effretikon, ZH",47.43473815917969,8.690179824829102,296,Illnau-Effretikon
1662023774-1033,"Florastrasse 4, 8307 Effretikon, ZH",47.4268684387207,8.689535140991211,296,Illnau-Effretikon
1662023771-1025,"Vogelsangstrasse 4, 8307 Effretikon, ZH",47.422271728515625,8.684447288513184,296,Illnau-Effretikon
1662023739-780,"Dürntnerstrasse 43a, 8340 Hinwil, ZH",47.298667907714844,8.841131210327148,117,Hinwil
1662023758-921,"Rütibach 11, 8340 Hinwil, ZH",47.298648834228516,8.839847564697266,117,Hinwil
1662023764-978,"Rütibach 11, 8340 Hinwil, ZH",47.298648834228516,8.839847564697266,117,Hinwil
1662023752-886,"Brandstr. 5, 8340 Hinwil, ZH",47.295860290527344,8.84011459350586,117,Hinwil
1662023761-958,"Brandstr. 7, 8340 Hinwil, ZH",47.29587173461914,8.840231895446777,117,Hinwil
1662023686-378,"Badenerstrasse 9, 8107 Buchs ZH, ZH",47.45781326293945,8.436094284057617,83,Buchs (ZH)
1662023695-449,"Meierwiesenstr. 39, 8107 Buchs ZH, ZH",47.456851959228516,8.44112777709961,83,Buchs (ZH)
1662023704-526,"Hauptstrasse 1d, 8544 Attikon, ZH",47.53608703613281,8.795804023742676,298,Wiesendangen
1662023695-452,"Hauptstrasse 1e, 8544 Attikon, ZH",47.53627014160156,8.795984268188477,298,Wiesendangen
1662023704-513,"Breitackerstrasse 31, 8542 Wiesendangen, ZH",47.5235595703125,8.784727096557617,298,Wiesendangen
1662023807-1303,"Hauptstrasse 4, 8543 Gundetswil, ZH",47.53946304321289,8.821414947509766,298,Wiesendangen
1662023774-1045,"Breitackerstrasse 34, 8542 Wiesendangen, ZH",47.52371597290039,8.786188125610352,298,Wiesendangen
1662023692-422,"8635 Dürnten, ZH",47.27986526489258,8.861824035644531,113,Dürnten
1662023771-1026,"Rothausstrasse 13, 8635 Dürnten, ZH",47.27626419067383,8.83108139038086,113,Dürnten
1662023711-574,"Baumgarten 4, 8632 Tann, ZH",47.26750564575195,8.850875854492188,113,Dürnten
1662023783-1115,"Bergstrasse 7, 8103 Unterengstringen, ZH",47.411643981933594,8.448543548583984,249,Unterengstringen
1662023686-374,"Bergstrasse 5, 8103 Unterengstringen, ZH",47.41147232055664,8.448328971862793,249,Unterengstringen
1662023686-373,"Bergstrasse 7, 8103 Unterengstringen, ZH",47.411643981933594,8.448543548583984,249,Unterengstringen
1662023733-724,"Büelstrasse 30, 8103 Unterengstringen, ZH",47.41432571411133,8.445075988769531,249,Unterengstringen
1662023745-825,"Langacherstrasse 16, 8103 Unterengstringen, ZH",47.41263961791992,8.453574180603027,249,Unterengstringen
1662023717-607,"Trottenstrasse 11, 8187 Weiach, ZH",47.555641174316406,8.440509796142578,102,Weiach
1662023704-505,"Stadlerstrasse 4, 8187 Weiach, ZH",47.55731201171875,8.435951232910156,102,Weiach
1662023774-1052,"Rebhaldenstrasse 71, 8625 Gossau ZH, ZH",47.30525588989258,8.767916679382324,115,Gossau (ZH)
1662023795-1210,"Im Eich 2, 8625 Gossau ZH, ZH",47.306175231933594,8.76700496673584,115,Gossau (ZH)
1662023733-744,"Rebhaldenstrasse 71, 8625 Gossau ZH, ZH",47.30525588989258,8.767916679382324,115,Gossau (ZH)
1662023717-606,"Im Zelgli 12, 8624 Grüt (Gossau ZH), ZH",47.30967712402344,8.781928062438965,115,Gossau (ZH)
1662023801-1254,"Tannenbergstrasse 58, 8625 Gossau ZH, ZH",47.30460739135742,8.769102096557617,115,Gossau (ZH)
1662023774-1046,"Rebhaldenstrasse 71, 8625 Gossau ZH, ZH",47.30525588989258,8.767916679382324,115,Gossau (ZH)
1662023720-642,"Lindenhofstrasse 10A, 8624 Grüt (Gossau ZH), ZH",47.31279373168945,8.784515380859375,115,Gossau (ZH)
1662023801-1258,"Oberhubstrasse 24, 8125 Zollikerberg, ZH",47.343505859375,8.60700511932373,161,Zollikon
1662023720-636,"Hinter Zünen 11, 8702 Zollikon, ZH",47.34146499633789,8.574190139770508,161,Zollikon
1662023736-757,"Am Brunnenbächli 28, 8125 Zollikerberg, ZH",47.34169006347656,8.607666969299316,161,Zollikon
1662023771-1022,"Rüterwiesstrasse 7, 8125 Zollikerberg, ZH",47.34381866455078,8.603903770446777,161,Zollikon
1662023686-367,"Kellersgasse 6, 8545 Rickenbach ZH, ZH",47.551513671875,8.797046661376953,225,Rickenbach (ZH)
1662023798-1244,"Hofibachstrasse 3, 8909 Zwillikon, ZH",47.28936767578125,8.441304206848145,2,Affoltern am Albis
1662023795-1217,"Zeughausstr. 29a, 8910 Affoltern am Albis, ZH",47.2719841003418,8.450772285461426,2,Affoltern am Albis
1662023717-603,"Obere Bahnhofstrasse 21, 8910 Affoltern am Albis, ZH",47.2765007019043,8.448233604431152,2,Affoltern am Albis
1662023804-1285,"Alte Hedingerstrasse 7, 8910 Affoltern am Albis, ZH",47.282405853271484,8.454839706420898,2,Affoltern am Albis
1662023745-822,"Centralweg 8, 8910 Affoltern am Albis, ZH",47.278282165527344,8.452200889587402,2,Affoltern am Albis
1662023774-1037,"Alte Kanzleistrasse 11, 8910 Affoltern am Albis, ZH",47.27546691894531,8.447565078735352,2,Affoltern am Albis
1662023767-987,"Sonnenbergstrasse 4, 8910 Affoltern am Albis, ZH",47.28150177001953,8.457354545593262,2,Affoltern am Albis
1662023777-1078,"Zeughausstr. 27a, 8910 Affoltern am Albis, ZH",47.27204132080078,8.450376510620117,2,Affoltern am Albis
1662023771-1028,"Bahnhofplatz 5a, 8910 Affoltern am Albis, ZH",47.275054931640625,8.446146965026855,2,Affoltern am Albis
1662023793-1193,"Zeughausstr. 29b, 8910 Affoltern am Albis, ZH",47.27188491821289,8.45091724395752,2,Affoltern am Albis
1662023777-1070,"Zürichstr. 106, 8910 Affoltern am Albis, ZH",47.27918243408203,8.45419692993164,2,Affoltern am Albis
1662023745-824,"Oberdorfstrasse 4, 8910 Affoltern am Albis, ZH",47.27767562866211,8.453544616699219,2,Affoltern am Albis
1662023711-573,"Spranglenstr. 32, 8303 Bassersdorf, ZH",47.444427490234375,8.618995666503906,52,Bassersdorf
1662023742-793,"8303 Bassersdorf, ZH",47.43027877807617,8.638310432434082,52,Bassersdorf
1662023701-481,"Spranglenstr. 34, 8303 Bassersdorf, ZH",47.44435119628906,8.61848258972168,52,Bassersdorf
1662023745-840,"8303 Bassersdorf, ZH",47.43027877807617,8.638310432434082,52,Bassersdorf
1662023714-583,"8312 Winterberg ZH, ZH",47.45626449584961,8.69238567352295,176,Lindau
1662023736-768,"Hofwisenstr. 2, 8317 Tagelswangen, ZH",47.430091857910156,8.669851303100586,176,Lindau
1662023742-814,"Huebstrasse 21, 8317 Tagelswangen, ZH",47.43145751953125,8.675027847290039,176,Lindau
1662023689-392,"8933 Maschwanden, ZH",47.23451232910156,8.422947883605957,8,Maschwanden
1662023810-1339,"Unterdorfstrasse 3, 8933 Maschwanden, ZH",47.23373794555664,8.423295021057129,8,Maschwanden
1662023714-582,"Unterdorfstrasse 3, 8933 Maschwanden, ZH",47.23373794555664,8.423295021057129,8,Maschwanden
1662023813-1362,"Kirchgasse 2, 8353 Elgg, ZH",47.489471435546875,8.8677339553833,294,Elgg
1662023810-1324,"Bahnhofstr. 6, 8353 Elgg, ZH",47.497188568115234,8.8644437789917,294,Elgg
1662023733-743,"Badenerstrasse 110, 8952 Schlieren, ZH",47.397884368896484,8.431954383850098,247,Schlieren
1662023783-1111,"Dörnliackerstrasse 3, 8952 Schlieren, ZH",47.395267486572266,8.439332962036133,247,Schlieren
1662023739-770,"Badenerstrasse 110, 8952 Schlieren, ZH",47.397884368896484,8.431954383850098,247,Schlieren
1662023798-1228,"Goldschlägistrasse 12, 8952 Schlieren, ZH",47.39844512939453,8.43955135345459,247,Schlieren
1662023742-809,"Breitenloostrasse 6, 8309 Nürensdorf, ZH",47.46484375,8.639374732971191,64,Nürensdorf
1662023720-638,"Bahnhofstrasse 21, 8153 Rümlang, ZH",47.45305252075195,8.529627799987793,97,Rümlang
1662023749-851,"Ifangstrasse 71, 8153 Rümlang, ZH",47.44933319091797,8.537286758422852,97,Rümlang
1662023692-426,"8153 Rümlang, ZH",47.448753356933594,8.539965629577637,97,Rümlang
1662023764-966,"Pfarrgasse 34, 8704 Herrliberg, ZH",47.28832244873047,8.61129093170166,152,Herrliberg
1662023717-622,"8704 Herrliberg, ZH",47.28742218017578,8.617650032043457,152,Herrliberg
1662023730-698,"Etzelstrasse 13, 8634 Hombrechtikon, ZH",47.251243591308594,8.779790878295898,153,Hombrechtikon
1662023704-519,"Seestrasse 2, 8714 Feldbach, ZH",47.239471435546875,8.787821769714355,153,Hombrechtikon
1662023698-467,"Im Zentrum 8, 8634 Hombrechtikon, ZH",47.25228500366211,8.769309997558594,153,Hombrechtikon
1662023733-726,"Heusserstrasse 7, 8634 Hombrechtikon, ZH",47.25457000732422,8.773594856262207,153,Hombrechtikon
1662023736-752,"Eilweg 4, 8634 Hombrechtikon, ZH",47.249027252197266,8.772947311401367,153,Hombrechtikon
1662023749-853,"Feldbachstrasse 72, 8634 Hombrechtikon, ZH",47.24557876586914,8.77876091003418,153,Hombrechtikon
1662023689-389,"Fähnlibrunnenstrasse 5, 8700 Küsnacht ZH, ZH",47.320709228515625,8.579315185546875,154,Küsnacht (ZH)
1662023730-717,"Birkenweg 8, 8700 Küsnacht ZH, ZH",47.322723388671875,8.586901664733887,154,Küsnacht (ZH)
1662023698-457,"Sonnenrain 10, 8700 Küsnacht ZH, ZH",47.323341369628906,8.602655410766602,154,Küsnacht (ZH)
1662023686-368,"Vorbruggenstrasse 5, 8422 Pfungen, ZH",47.51858139038086,8.638360023498535,224,Pfungen
1662023749-854,"Rankstr. 14, 8413 Neftenbach, ZH",47.51865768432617,8.657525062561035,224,Pfungen
1662023701-495,"Hinterdorfstrasse 8, 8422 Pfungen, ZH",47.51422119140625,8.639961242675781,224,Pfungen
1662023783-1124,"Vorbruggenstr. 20, 8422 Pfungen, ZH",47.5192756652832,8.639522552490234,224,Pfungen
1662023813-1361,"Dättlikonerstrasse 16, 8422 Pfungen, ZH",47.51939010620117,8.6381196975708,224,Pfungen
1662023795-1222,"Vorbruggenstr. 26, 8422 Pfungen, ZH",47.519439697265625,8.640228271484375,224,Pfungen
1662023689-398,"Niederdorfweg 4, 8488 Turbenthal, ZH",47.44387435913086,8.839629173278809,228,Turbenthal
1662023686-382,"Hegi 6, 8197 Rafz, ZH",47.612030029296875,8.536371231079102,67,Rafz
1662023771-1021,"Baumschuelwäg 23, 8197 Rafz, ZH",47.606971740722656,8.543028831481934,67,Rafz
1662023689-400,"Baumschuelwäg 1, 8197 Rafz, ZH",47.60714340209961,8.543349266052246,67,Rafz
1662023692-425,"Geissewinkel 1, 8197 Rafz, ZH",47.61446762084961,8.536229133605957,67,Rafz
1662023698-476,"Rheinfallstrasse 1, 8447 Dachsen, ZH",47.67106246948242,8.61297607421875,25,Dachsen
1662023786-1143,"Rheinfallstrasse 1, 8447 Dachsen, ZH",47.67106246948242,8.61297607421875,25,Dachsen
1662023758-920,"Feldeggstrasse 2, 8447 Dachsen, ZH",47.669620513916016,8.612405776977539,25,Dachsen
1662023789-1163,"Buechenstrasse 14, 8174 Stadel b. Niederglatt, ZH",47.531742095947266,8.465595245361328,100,Stadel
1662023733-738,"Buechenstrasse 16, 8174 Stadel b. Niederglatt, ZH",47.53177261352539,8.465415000915527,100,Stadel
1662023704-514,"Chofelstrasse 6, 8174 Stadel b. Niederglatt, ZH",47.527557373046875,8.465577125549316,100,Stadel
1662023707-547,"Tannenheimweg 3, 8450 Andelfingen, ZH",47.594303131103516,8.676922798156738,30,Andelfingen
1662023755-906,"Tannenheimweg 5, 8450 Andelfingen, ZH",47.594337463378906,8.676440238952637,30,Andelfingen
1662023804-1274,"Reutlenring 32, 8302 Kloten, ZH",47.4468879699707,8.592916488647461,62,Kloten
1662023758-926,"Lochäckerstrasse 14, 8302 Kloten, ZH",47.444679260253906,8.590867042541504,62,Kloten
1662023701-498,"Balsbergweg 14, 8302 Kloten, ZH",47.44394302368164,8.576591491699219,62,Kloten
1662023795-1208,"Lochäckerstrasse 12, 8302 Kloten, ZH",47.444705963134766,8.590353012084961,62,Kloten
1662023695-435,"Lochäckerstrasse 4, 8302 Kloten, ZH",47.445255279541016,8.589338302612305,62,Kloten
1662023742-802,"Am Balsberg 32, 8302 Kloten, ZH",47.44306945800781,8.576788902282715,62,Kloten
1662023707-552,"Hasenbühlweg 9, 8302 Kloten, ZH",47.44316101074219,8.581664085388184,62,Kloten
1662023749-844,"Säntisstrasse  8, 8302 Kloten, ZH",47.45154571533203,8.59282398223877,62,Kloten
1662023742-800,"Amselweg 13, 8302 Kloten, ZH",47.44395065307617,8.588813781738281,62,Kloten
1662023755-897,"8302 Kloten, ZH",47.468379974365234,8.58712100982666,62,Kloten
1662023813-1360,"Rietweg 29, 8477 Oberstammheim, ZH",47.63356399536133,8.791045188903809,292,Stammheim
1662023717-609,"Hänkelbodenstrasse 3, 8173 Neerach, ZH",47.51447296142578,8.474930763244629,88,Neerach
1662023733-728,"Hochfelderstrasse 17a, 8173 Neerach, ZH",47.514522552490234,8.477851867675781,88,Neerach
1662023717-602,"Hänkelbodenstrasse 3, 8173 Neerach, ZH",47.51447296142578,8.474930763244629,88,Neerach
1662023793-1180,"Kleindorfstrasse 117, 8707 Uetikon am See, ZH",47.267723083496094,8.684910774230957,159,Uetikon am See
1662023695-446,"Kleindorfstrasse 58, 8707 Uetikon am See, ZH",47.26448059082031,8.683062553405762,159,Uetikon am See
1662023798-1233,"Schönaustrasse 21, 8707 Uetikon am See, ZH",47.26824951171875,8.673255920410156,159,Uetikon am See
1662023707-530,"Alte Zwillikerstrasse 7, 8908 Hedingen, ZH",47.295799255371094,8.44720458984375,5,Hedingen
1662023767-992,"Zwillikerstrasse 4, 8908 Hedingen, ZH",47.29840850830078,8.447592735290527,5,Hedingen
1662023758-913,"Püntenweg 2, 8184 Bachenbülach, ZH",47.5056266784668,8.548422813415527,51,Bachenbülach
1662023723-655,"Bächliwis 7, 8184 Bachenbülach, ZH",47.50484848022461,8.544466972351074,51,Bachenbülach
1662023761-956,"Hinterroos 1, 8184 Bachenbülach, ZH",47.503761291503906,8.543971061706543,51,Bachenbülach
1662023689-405,"Dorfstrasse 33, 8184 Bachenbülach, ZH",47.50346374511719,8.549564361572266,51,Bachenbülach
1662023736-754,"Mühlestr. 4C, 8912 Obfelden, ZH",47.263431549072266,8.411825180053711,10,Obfelden
1662023698-460,"Mühlestr. 4B, 8912 Obfelden, ZH",47.26331329345703,8.411442756652832,10,Obfelden
1662023813-1367,"Wolserstrasse 30a, 8912 Obfelden, ZH",47.260929107666016,8.427953720092773,10,Obfelden
1662023730-703,"Friedenstrasse 15a, 8304 Wallisellen, ZH",47.41529846191406,8.586057662963867,69,Wallisellen
1662023793-1190,"Melchrütistrasse 13, 8304 Wallisellen, ZH",47.4168815612793,8.579245567321777,69,Wallisellen
1662023774-1041,"Alte Winterthurerstrasse 95, 8304 Wallisellen, ZH",47.420196533203125,8.59860897064209,69,Wallisellen
1662023701-490,"Friedenstrasse 4a, 8304 Wallisellen, ZH",47.4157829284668,8.586012840270996,69,Wallisellen
1662023749-862,"Im Langacker 3, 8304 Wallisellen, ZH",47.409996032714844,8.606040000915527,69,Wallisellen
1662023780-1083,"In Lampitzäckern 45, 8305 Dietlikon, ZH",47.414306640625,8.615131378173828,69,Wallisellen
1662023798-1236,"Langenmattstrasse, 8617 Mönchaltorf, ZH",47.31470489501953,8.720132827758789,196,Mönchaltorf
1662023783-1107,"Langenmattstrasse 22, 8617 Mönchaltorf, ZH",47.315738677978516,8.719118118286133,196,Mönchaltorf
1662023720-633,"Am Isenbach 3, 8906 Bonstetten, ZH",47.315860748291016,8.471536636352539,3,Bonstetten
1662023749-842,"Chüeweid 7, 8906 Bonstetten, ZH",47.31626892089844,8.466718673706055,3,Bonstetten
1662023727-692,"Püntstrasse 22, 8165 Oberweningen, ZH",47.49969482421875,8.407127380371094,93,Oberweningen
1662023804-1281,"Püntstrasse 9, 8165 Oberweningen, ZH",47.49998092651367,8.407363891601562,93,Oberweningen
1662023717-610,"Bänkliholzweg 13, 8335 Hittnau, ZH",47.37062072753906,8.824464797973633,173,Hittnau
1662023723-670,"Fuhrstr. 12, 8135 Langnau am Albis, ZH",47.286415100097656,8.541644096374512,136,Langnau am Albis
1662023755-895,"Hintere Grundstrasse 29, 8135 Langnau am Albis, ZH",47.289249420166016,8.537467002868652,136,Langnau am Albis
1662023704-511,"Weidstr. 1, 8135 Langnau am Albis, ZH",47.29462814331055,8.536721229553223,136,Langnau am Albis
1662023801-1259,"Sihltalstrasse 68, 8135 Langnau am Albis, ZH",47.290855407714844,8.542180061340332,136,Langnau am Albis
1662023704-509,"Dickbucherstrasse 8, 8352 Elsau, ZH",47.50142288208008,8.819164276123047,219,Elsau
1662023717-614,"Im Halbiacker 3, 8352 Elsau, ZH",47.50206756591797,8.783915519714355,219,Elsau
1662023771-1024,"In der Au 50, 8706 Meilen, ZH",47.27225875854492,8.663619995117188,156,Meilen
1662023742-810,"Feldgüetliweg 88, 8706 Meilen, ZH",47.27505874633789,8.625059127807617,156,Meilen
1662023711-569,"In der Au 30, 8706 Meilen, ZH",47.27286148071289,8.664660453796387,156,Meilen
1662023686-364,"Moosbrunnenstrasse 7, 8426 Lufingen, ZH",47.48979568481445,8.593528747558594,63,Lufingen
1662023758-922,"Wolfsbergstrasse 26, 8494 Bauma, ZH",47.364627838134766,8.883868217468262,297,Bauma
1662023755-892,"8494 Bauma, ZH",47.362789154052734,8.92087173461914,297,Bauma
1662023761-951,"Unterdorfstrasse 44a, 8494 Bauma, ZH",47.36958694458008,8.871255874633789,297,Bauma
1662023701-492,"8494 Bauma, ZH",47.362789154052734,8.92087173461914,297,Bauma
1662023733-736,"Stadlerstrasse 35, 8472 Seuzach, ZH",47.53435134887695,8.740181922912598,227,Seuzach
1662023739-776,"Winterthurerstrasse 5, 8472 Seuzach, ZH",47.5356330871582,8.730208396911621,227,Seuzach
1662023804-1289,"Im Handschüssel 6, 8472 Seuzach, ZH",47.52970504760742,8.732017517089844,227,Seuzach
1662023807-1307,"Strehlgasse 27, 8472 Seuzach, ZH",47.53704071044922,8.734267234802246,227,Seuzach
1662023810-1340,"Wängistr. 5, 8142 Uitikon Waldegg, ZH",47.376258850097656,8.447173118591309,248,Uitikon
1662023695-448,"Chimligasse 5, 8603 Schwerzenbach, ZH",47.38670349121094,8.658082962036133,197,Schwerzenbach
1662023742-815,"Oberholzstrasse 3, 8603 Schwerzenbach, ZH",47.380428314208984,8.66160774230957,197,Schwerzenbach
1662023745-838,"8154 Oberglatt ZH, ZH",47.48018264770508,8.524710655212402,92,Oberglatt
1662023695-443,"Bahnhofstrasse 8, 8154 Oberglatt ZH, ZH",47.476478576660156,8.518460273742676,92,Oberglatt
1662023714-587,"8154 Oberglatt ZH, ZH",47.48018264770508,8.524710655212402,92,Oberglatt
1662023704-507,"Hohle Gasse 11, 8154 Oberglatt ZH, ZH",47.479251861572266,8.506564140319824,92,Oberglatt
1662023755-904,"Allmendstrasse 40, 8154 Oberglatt ZH, ZH",47.47051239013672,8.513020515441895,92,Oberglatt
1662023695-441,"Grafschaftstrasse 23, 8172 Niederglatt ZH, ZH",47.49378967285156,8.503396987915039,89,Niederglatt
1662023761-940,"Im Guet 10, 8172 Niederglatt ZH, ZH",47.49287033081055,8.502676963806152,89,Niederglatt
1662023727-674,"Nüsatzstrasse 27, 8248 Uhwiesen, ZH",47.66944122314453,8.640958786010742,34,Laufen-Uhwiesen
1662023720-637,"Rheinfallstrasse 7, 8447 Dachsen, ZH",47.67084503173828,8.612621307373047,34,Laufen-Uhwiesen
1662023771-1011,"Spichergasse 10b, 8185 Winkel, ZH",47.491275787353516,8.555011749267578,72,Winkel
1662023689-397,"Spichergasse 3, 8185 Winkel, ZH",47.49066925048828,8.55453872680664,72,Winkel
1662023755-908,"Zürichstrasse 63, 8607 Aathal-Seegräben, ZH",47.33839797973633,8.762406349182129,119,Seegräben
1662023752-866,"Wilhofstrasse 2, 8332 Russikon, ZH",47.39215087890625,8.774938583374023,178,Russikon
1662023798-1230,"Birchwiesstrasse 4, 8114 Dänikon ZH, ZH",47.44737243652344,8.408712387084961,85,Dänikon
1662023767-985,"Alte Landstrasse 3, 8114 Dänikon ZH, ZH",47.44636917114258,8.408273696899414,85,Dänikon
1662023707-545,"Schulstrasse 12, 8462 Rheinau, ZH",47.6439208984375,8.602176666259766,38,Rheinau
1662023704-525,"Poststrasse 4, 8462 Rheinau, ZH",47.64501190185547,8.60564136505127,38,Rheinau
1662023717-604,"Steiggasse 4, 8418 Schlatt ZH, ZH",47.478694915771484,8.820316314697266,226,Schlatt (ZH)
1662023798-1243,"Alte Landstrasse 359, 8708 Männedorf, ZH",47.24911117553711,8.703768730163574,155,Männedorf
1662023804-1283,"Hasenackerstrasse 41, 8708 Männedorf, ZH",47.25540542602539,8.699341773986816,155,Männedorf
1662023783-1113,"Bahnhofstrasse 17, 8708 Männedorf, ZH",47.253421783447266,8.692337989807129,155,Männedorf
1662023739-777,"Weiermattstrasse 3, 8926 Uerzlikon, ZH",47.22249984741211,8.497673034667969,6,Kappel am Albis
1662023749-841,"Albisstrasse 31, 8915 Hausen am Albis, ZH",47.249515533447266,8.529131889343262,4,Hausen am Albis
1662023739-772,"Dorfstrasse 6a, 8484 Weisslingen, ZH",47.43025588989258,8.765653610229492,180,Weisslingen
1662023764-968,"Twäracherstrasse 3, 8118 Pfaffhausen, ZH",47.36186218261719,8.62444019317627,195,Maur
1662023813-1354,"Unterdorfstrasse 57, 8124 Maur, ZH",47.339515686035156,8.672159194946289,195,Maur
1662023813-1348,"Unterdorfstrasse 53, 8124 Maur, ZH",47.33962631225586,8.67275619506836,195,Maur
1662023727-680,"Binzacherweg 1, 8166 Niederweningen, ZH",47.50952911376953,8.376884460449219,91,Niederweningen
1662023798-1231,"Im Geeren 38, 8112 Otelfingen, ZH",47.46659469604492,8.38892936706543,94,Otelfingen
1662023786-1151,"Bodenackerstrasse 25, 8112 Otelfingen, ZH",47.46067810058594,8.391583442687988,94,Otelfingen
1662023730-699,"Uhwieserstrasse 3, 8247 Flurlingen, ZH",47.68281936645508,8.630277633666992,29,Flurlingen
1662023730-708,"Meierhofstrasse 6, 8108 Dällikon, ZH",47.438838958740234,8.436247825622559,84,Dällikon
1662023767-1003,"Winkelrainweg 3c, 8102 Oberengstringen, ZH",47.40855026245117,8.457937240600586,245,Oberengstringen
1662023767-991,"Brunaustrasse 164, 8951 Fahrweid, ZH",47.41196060180664,8.418286323547363,251,Weiningen (ZH)
1662023730-715,"Zürcherstrasse 10, 8104 Weiningen ZH, ZH",47.41920471191406,8.43524169921875,251,Weiningen (ZH)
1662023701-496,"Grundstrasse 14, 8934 Knonau, ZH",47.22323226928711,8.458288192749023,7,Knonau
1662023717-623,"Eschfeld 5, 8934 Knonau, ZH",47.21913146972656,8.466012954711914,7,Knonau
1662023755-899,"Gottlieb-Binder-Strasse 7, 8802 Kilchberg ZH, ZH",47.32271957397461,8.541389465332031,135,Kilchberg (ZH)
1662023813-1358,"Birkenweg 22, 8471 Berg (Dägerlen), ZH",47.562801361083984,8.732789993286133,214,Dägerlen
1662023798-1246,"Brestenbühlstrasse 56, 8182 Hochfelden, ZH",47.51936721801758,8.515633583068848,59,Hochfelden
